{"features":[{"geometry":{"coordinates":[[[-46.8817949,-18.5056716],[-46.8817949,-18.5061669],[-46.8809658,-18.5061669],[-46.8809658,-18.5064971],[-46.8807585,-18.5064971],[-46.8807585,-18.5059192],[-46.8804475,-18.5059192],[-46.8804475,-18.5056716],[-46.8817949,-18.5056716]]],"type":"Polygon"},"properties":{},"type":"Feature"},{"geometry":{"coordinates":[[[-46.882624,-18.5040206],[-46.882624,-18.5042682],[-46.8823131,-18.5042682],[-46.8823131,-18.5040206],[-46.882624,-18.5040206]]],"type":"Polygon"},"properties":{},"type":"Feature"},{"geometry":{"coordinates":[[[-46.8829349,-18.5218519],[-46.8829349,-18.5220996],[-46.882624,-18.5220996],[-46.882624,-18.5218519],[-46.8829349,-18.5218519]]],"type":"Polygon"},"properties":{},"type":"Feature"},{"geometry":{"coordinates":[[[-46.8834532,-18.5218519],[-46.8834532,-18.5223473],[-46.8831422,-18.5223473],[-46.8831422,-18.5218519],[-46.8834532,-18.5218519]]],"type":"Polygon"},"properties":{},"type":"Feature"},{"geometry":{"coordinates":[[[-46.8839714,-18.5223473],[-46.8839714,-18.5225949],[-46.8834532,-18.5225949],[-46.8834532,-18.5223473],[-46.8839714,-18.5223473]]],"type":"Polygon"},"properties":{},"type":"Feature"},{"geometry":{"coordinates":[[[-46.8844896,-18.502122],[-46.8844896,-18.5026998],[-46.8834532,-18.5026998],[-46.8834532,-18.5024522],[-46.8836604,-18.5024522],[-46.8836604,-18.502122],[-46.8844896,-18.502122]]],"type":"Polygon"},"properties":{},"type":"Feature"},{"geometry":{"coordinates":[[[-46.8853187,-18.5024522],[-46.8853187,-18.5026998],[-46.8850078,-18.5026998],[-46.8850078,-18.5031951],[-46.8848005,-18.5031951],[-46.8848005,-18.5024522],[-46.8853187,-18.5024522]]],"type":"Polygon"},"properties":{},"type":"Feature"},{"geometry":{"coordinates":[[[-46.886977,-18.4991503],[-46.886977,-18.5002234],[-46.886666,-18.5002234],[-46.886666,-18.5005536],[-46.8861478,-18.5005536],[-46.8861478,-18.4991503],[-46.886977,-18.4991503]]],"type":"Polygon"},"properties":{},"type":"Feature"},{"geometry":{"coordinates":[[[-46.8874952,-18.5016267],[-46.8874952,-18.5018743],[-46.8871843,-18.5018743],[-46.8871843,-18.5016267],[-46.8874952,-18.5016267]]],"type":"Polygon"},"properties":{},"type":"Feature"},{"geometry":{"coordinates":[[[-46.8885316,-18.5005536],[-46.8885316,-18.5008012],[-46.8883243,-18.5008012],[-46.8883243,-18.5005536],[-46.8885316,-18.5005536]]],"type":"Polygon"},"properties":{},"type":"Feature"},{"geometry":{"coordinates":[[[-46.8890498,-18.5018743],[-46.8890498,-18.502122],[-46.8877025,-18.502122],[-46.8877025,-18.5018743],[-46.8890498,-18.5018743]]],"type":"Polygon"},"properties":{},"type":"Feature"},{"geometry":{"coordinates":[[[-46.8907081,-18.5010489],[-46.8907081,-18.5013791],[-46.8903971,-18.5013791],[-46.8903971,-18.5016267],[-46.8896717,-18.5016267],[-46.8896717,-18.5010489],[-46.8907081,-18.5010489]]],"type":"Polygon"},"properties":{},"type":"Feature"},{"geometry":{"coordinates":[[[-46.8915372,-18.4997281],[-46.8915372,-18.4999758],[-46.8917445,-18.4999758],[-46.8917445,-18.5005536],[-46.8915372,-18.5005536],[-46.8915372,-18.5008012],[-46.8907081,-18.5008012],[-46.8907081,-18.4997281],[-46.8915372,-18.4997281]]],"type":"Polygon"},"properties":{},"type":"Feature"},{"geometry":{"coordinates":[[[-46.9141311,-18.5086434],[-46.9141311,-18.508891],[-46.9136129,-18.508891],[-46.9136129,-18.5086434],[-46.9141311,-18.5086434]]],"type":"Polygon"},"properties":{},"type":"Feature"},{"geometry":{"coordinates":[[[-46.9152711,-18.5086434],[-46.9152711,-18.508891],[-46.9149602,-18.508891],[-46.9149602,-18.5086434],[-46.9152711,-18.5086434]]],"type":"Polygon"},"properties":{},"type":"Feature"}],"type":"FeatureCollection"}
