{"features":[{"geometry":{"coordinates":[[[-46.8807585,-18.5361348],[-46.8807585,-18.5366302],[-46.8804475,-18.5366302],[-46.8804475,-18.5367128],[-46.8802403,-18.5367128],[-46.8802403,-18.5363825],[-46.8804475,-18.5363825],[-46.8804475,-18.5361348],[-46.8807585,-18.5361348]]],"type":"Polygon"},"properties":{},"type":"Feature"},{"geometry":{"coordinates":[[[-46.882624,-18.5040206],[-46.882624,-18.5042682],[-46.8823131,-18.5042682],[-46.8823131,-18.5040206],[-46.882624,-18.5040206]]],"type":"Polygon"},"properties":{},"type":"Feature"},{"geometry":{"coordinates":[[[-46.882624,-18.5344835],[-46.882624,-18.5347312],[-46.8821058,-18.5347312],[-46.8821058,-18.5344835],[-46.882624,-18.5344835]]],"type":"Polygon"},"properties":{},"type":"Feature"},{"geometry":{"coordinates":[[[-46.8829349,-18.5269705],[-46.8829349,-18.5291171],[-46.8831422,-18.5291171],[-46.8831422,-18.5293647],[-46.882624,-18.5293647],[-46.882624,-18.5296124],[-46.8821058,-18.5296124],[-46.8821058,-18.530438],[-46.8823131,-18.530438],[-46.8823131,-18.5312636],[-46.882624,-18.5312636],[-46.882624,-18.5328323],[-46.8823131,-18.5328323],[-46.8823131,-18.5334102],[-46.8821058,-18.5334102],[-46.8821058,-18.5344835],[-46.8815876,-18.5344835],[-46.8815876,-18.5347312],[-46.8817949,-18.5347312],[-46.8817949,-18.5353092],[-46.8815876,-18.5353092],[-46.8815876,-18.5358046],[-46.8812767,-18.5358046],[-46.8812767,-18.5361348],[-46.8807585,-18.5361348],[-46.8807585,-18.5339882],[-46.8809658,-18.5339882],[-46.8809658,-18.5336579],[-46.8817949,-18.5336579],[-46.8817949,-18.5334102],[-46.8815876,-18.5334102],[-46.8815876,-18.5331626],[-46.8812767,-18.5331626],[-46.8812767,-18.5334102],[-46.8807585,-18.5334102],[-46.8807585,-18.5331626],[-46.8788929,-18.5331626],[-46.8788929,-18.5328323],[-46.8817949,-18.5328323],[-46.8817949,-18.5288694],[-46.8821058,-18.5288694],[-46.8821058,-18.5282915],[-46.8823131,-18.5282915],[-46.8823131,-18.5280438],[-46.882624,-18.5280438],[-46.882624,-18.5274659],[-46.8823131,-18.5274659],[-46.8823131,-18.5272182],[-46.882624,-18.5272182],[-46.882624,-18.5269705],[-46.8829349,-18.5269705]],[[-46.882624,-18.5282915],[-46.8823131,-18.5282915],[-46.8823131,-18.5288694],[-46.882624,-18.5288694],[-46.882624,-18.5282915]]],"type":"Polygon"},"properties":{},"type":"Feature"},{"geometry":{"coordinates":[[[-46.8831422,-18.5258972],[-46.8831422,-18.5261449],[-46.8829349,-18.5261449],[-46.8829349,-18.5258972],[-46.8831422,-18.5258972]]],"type":"Polygon"},"properties":{},"type":"Feature"},{"geometry":{"coordinates":[[[-46.8834532,-18.524824],[-46.8834532,-18.525567],[-46.8831422,-18.525567],[-46.8831422,-18.524824],[-46.8834532,-18.524824]]],"type":"Polygon"},"properties":{},"type":"Feature"},{"geometry":{"coordinates":[[[-46.8836604,-18.5237507],[-46.8836604,-18.5239984],[-46.8834532,-18.5239984],[-46.8834532,-18.5237507],[-46.8836604,-18.5237507]]],"type":"Polygon"},"properties":{},"type":"Feature"},{"geometry":{"coordinates":[[[-46.8836604,-18.5242461],[-46.8836604,-18.5244938],[-46.8834532,-18.5244938],[-46.8834532,-18.5242461],[-46.8836604,-18.5242461]]],"type":"Polygon"},"properties":{},"type":"Feature"},{"geometry":{"coordinates":[[[-46.8839714,-18.5191276],[-46.8839714,-18.5193752],[-46.8836604,-18.5193752],[-46.8836604,-18.5191276],[-46.8839714,-18.5191276]]],"type":"Polygon"},"properties":{},"type":"Feature"},{"geometry":{"coordinates":[[[-46.8839714,-18.5231728],[-46.8839714,-18.5237507],[-46.8836604,-18.5237507],[-46.8836604,-18.5231728],[-46.8839714,-18.5231728]]],"type":"Polygon"},"properties":{},"type":"Feature"},{"geometry":{"coordinates":[[[-46.8844896,-18.5018743],[-46.8844896,-18.5026998],[-46.8834532,-18.5026998],[-46.8834532,-18.502122],[-46.8836604,-18.502122],[-46.8836604,-18.5018743],[-46.8844896,-18.5018743]]],"type":"Polygon"},"properties":{},"type":"Feature"},{"geometry":{"coordinates":[[[-46.8848005,-18.5188799],[-46.8848005,-18.5202008],[-46.8853187,-18.5202008],[-46.8853187,-18.5204485],[-46.8848005,-18.5204485],[-46.8848005,-18.5210264],[-46.8844896,-18.5210264],[-46.8844896,-18.5204485],[-46.8842823,-18.5204485],[-46.8842823,-18.5210264],[-46.8839714,-18.5210264],[-46.8839714,-18.5215217],[-46.8842823,-18.5215217],[-46.8842823,-18.521274],[-46.8844896,-18.521274],[-46.8844896,-18.5229252],[-46.8842823,-18.5229252],[-46.8842823,-18.5231728],[-46.8839714,-18.5231728],[-46.8839714,-18.5229252],[-46.8836604,-18.5229252],[-46.8836604,-18.5231728],[-46.8834532,-18.5231728],[-46.8834532,-18.5234205],[-46.8831422,-18.5234205],[-46.8831422,-18.5239984],[-46.882624,-18.5239984],[-46.882624,-18.5234205],[-46.8823131,-18.5234205],[-46.8823131,-18.5231728],[-46.8821058,-18.5231728],[-46.8821058,-18.5229252],[-46.8812767,-18.5229252],[-46.8812767,-18.5231728],[-46.8796184,-18.5231728],[-46.8796184,-18.5229252],[-46.8794111,-18.5229252],[-46.8794111,-18.5218519],[-46.8796184,-18.5218519],[-46.8796184,-18.5210264],[-46.8802403,-18.5210264],[-46.8802403,-18.521274],[-46.8807585,-18.521274],[-46.8807585,-18.5215217],[-46.8809658,-18.5215217],[-46.8809658,-18.5220996],[-46.8812767,-18.5220996],[-46.8812767,-18.5223473],[-46.8815876,-18.5223473],[-46.8815876,-18.5218519],[-46.8817949,-18.5218519],[-46.8817949,-18.5215217],[-46.8821058,-18.5215217],[-46.8821058,-18.5218519],[-46.8829349,-18.5218519],[-46.8829349,-18.521274],[-46.8831422,-18.521274],[-46.8831422,-18.5204485],[-46.8834532,-18.5204485],[-46.8834532,-18.5199531],[-46.8839714,-18.5199531],[-46.8839714,-18.5197055],[-46.8844896,-18.5197055],[-46.8844896,-18.5193752],[-46.8842823,-18.5193752],[-46.8842823,-18.5191276],[-46.8844896,-18.5191276],[-46.8844896,-18.5188799],[-46.8848005,-18.5188799]],[[-46.8839714,-18.5215217],[-46.8836604,-18.5215217],[-46.8836604,-18.5218519],[-46.8834532,-18.5218519],[-46.8834532,-18.5223473],[-46.8839714,-18.5223473],[-46.8839714,-18.5215217]],[[-46.8842823,-18.5223473],[-46.8839714,-18.5223473],[-46.8839714,-18.5225949],[-46.8842823,-18.5225949],[-46.8842823,-18.5223473]]],"type":"Polygon"},"properties":{},"type":"Feature"},{"geometry":{"coordinates":[[[-46.8853187,-18.5156603],[-46.8853187,-18.5159079],[-46.8848005,-18.5159079],[-46.8848005,-18.5156603],[-46.8853187,-18.5156603]]],"type":"Polygon"},"properties":{},"type":"Feature"},{"geometry":{"coordinates":[[[-46.8858369,-18.5358046],[-46.8858369,-18.5361348],[-46.8856296,-18.5361348],[-46.8856296,-18.5358046],[-46.8858369,-18.5358046]]],"type":"Polygon"},"properties":{},"type":"Feature"},{"geometry":{"coordinates":[[[-46.886977,-18.4991503],[-46.886977,-18.5002234],[-46.886666,-18.5002234],[-46.886666,-18.5005536],[-46.8863551,-18.5005536],[-46.8863551,-18.5010489],[-46.886666,-18.5010489],[-46.886666,-18.5013791],[-46.886977,-18.5013791],[-46.886977,-18.5016267],[-46.8885316,-18.5016267],[-46.8885316,-18.5018743],[-46.8896717,-18.5018743],[-46.8896717,-18.502122],[-46.8885316,-18.502122],[-46.8885316,-18.5026998],[-46.8880134,-18.5026998],[-46.8880134,-18.5029475],[-46.8874952,-18.5029475],[-46.8874952,-18.5031951],[-46.8871843,-18.5031951],[-46.8871843,-18.502122],[-46.886666,-18.502122],[-46.886666,-18.5018743],[-46.8861478,-18.5018743],[-46.8861478,-18.5029475],[-46.8858369,-18.5029475],[-46.8858369,-18.5035253],[-46.8856296,-18.5035253],[-46.8856296,-18.5037729],[-46.8853187,-18.5037729],[-46.8853187,-18.5040206],[-46.8842823,-18.5040206],[-46.8842823,-18.5048461],[-46.8839714,-18.5048461],[-46.8839714,-18.5054239],[-46.8829349,-18.5054239],[-46.8829349,-18.5056716],[-46.882624,-18.5056716],[-46.882624,-18.5067447],[-46.8812767,-18.5067447],[-46.8812767,-18.5064971],[-46.8804475,-18.5064971],[-46.8804475,-18.5061669],[-46.8779601,-18.5061669],[-46.8779601,-18.5054239],[-46.8791002,-18.5054239],[-46.8791002,-18.5056716],[-46.8802403,-18.5056716],[-46.8802403,-18.5059192],[-46.8804475,-18.5059192],[-46.8804475,-18.5056716],[-46.8807585,-18.5056716],[-46.8807585,-18.5054239],[-46.8815876,-18.5054239],[-46.8815876,-18.5056716],[-46.8817949,-18.5056716],[-46.8817949,-18.5059192],[-46.8821058,-18.5059192],[-46.8821058,-18.5056716],[-46.8823131,-18.5056716],[-46.8823131,-18.5054239],[-46.882624,-18.5054239],[-46.882624,-18.5048461],[-46.8831422,-18.5048461],[-46.8831422,-18.5042682],[-46.8834532,-18.5042682],[-46.8834532,-18.5040206],[-46.8836604,-18.5040206],[-46.8836604,-18.5037729],[-46.8839714,-18.5037729],[-46.8839714,-18.5035253],[-46.8842823,-18.5035253],[-46.8842823,-18.5031951],[-46.8844896,-18.5031951],[-46.8844896,-18.5029475],[-46.8848005,-18.5029475],[-46.8848005,-18.502122],[-46.8853187,-18.502122],[-46.8853187,-18.5016267],[-46.8850078,-18.5016267],[-46.8850078,-18.5013791],[-46.8856296,-18.5013791],[-46.8856296,-18.5010489],[-46.8853187,-18.5010489],[-46.8853187,-18.4994805],[-46.8856296,-18.4994805],[-46.8856296,-18.4991503],[-46.886977,-18.4991503]]],"type":"Polygon"},"properties":{},"type":"Feature"},{"geometry":{"coordinates":[[[-46.886977,-18.5110373],[-46.886977,-18.511285],[-46.886666,-18.511285],[-46.886666,-18.5110373],[-46.886977,-18.5110373]]],"type":"Polygon"},"properties":{},"type":"Feature"},{"geometry":{"coordinates":[[[-46.886977,-18.5137616],[-46.886977,-18.5140092],[-46.886666,-18.5140092],[-46.886666,-18.5137616],[-46.886977,-18.5137616]]],"type":"Polygon"},"properties":{},"type":"Feature"},{"geometry":{"coordinates":[[[-46.8871843,-18.5116152],[-46.8871843,-18.5121105],[-46.886977,-18.5121105],[-46.886977,-18.512936],[-46.886666,-18.512936],[-46.886666,-18.5137616],[-46.8861478,-18.5137616],[-46.8861478,-18.512936],[-46.8863551,-18.512936],[-46.8863551,-18.5123582],[-46.886666,-18.5123582],[-46.886666,-18.5121105],[-46.8863551,-18.5121105],[-46.8863551,-18.5116152],[-46.8871843,-18.5116152]]],"type":"Polygon"},"properties":{},"type":"Feature"},{"geometry":{"coordinates":[[[-46.8871843,-18.5344835],[-46.8871843,-18.5347312],[-46.886977,-18.5347312],[-46.886977,-18.5344835],[-46.8871843,-18.5344835]]],"type":"Polygon"},"properties":{},"type":"Feature"},{"geometry":{"coordinates":[[[-46.8874952,-18.5282915],[-46.8874952,-18.5285391],[-46.8871843,-18.5285391],[-46.8871843,-18.5282915],[-46.8874952,-18.5282915]]],"type":"Polygon"},"properties":{},"type":"Feature"},{"geometry":{"coordinates":[[[-46.8874952,-18.5293647],[-46.8874952,-18.5299427],[-46.886977,-18.5299427],[-46.886977,-18.5293647],[-46.8874952,-18.5293647]]],"type":"Polygon"},"properties":{},"type":"Feature"},{"geometry":{"coordinates":[[[-46.8874952,-18.5301903],[-46.8874952,-18.530438],[-46.8871843,-18.530438],[-46.8871843,-18.5306857],[-46.886977,-18.5306857],[-46.886977,-18.531016],[-46.8871843,-18.531016],[-46.8871843,-18.5315113],[-46.8874952,-18.5315113],[-46.8874952,-18.531759],[-46.886666,-18.531759],[-46.886666,-18.5320892],[-46.8863551,-18.5320892],[-46.8863551,-18.5315113],[-46.886666,-18.5315113],[-46.886666,-18.5301903],[-46.8874952,-18.5301903]]],"type":"Polygon"},"properties":{},"type":"Feature"},{"geometry":{"coordinates":[[[-46.8877025,-18.5347312],[-46.8877025,-18.5353092],[-46.8871843,-18.5353092],[-46.8871843,-18.5347312],[-46.8877025,-18.5347312]]],"type":"Polygon"},"properties":{},"type":"Feature"},{"geometry":{"coordinates":[[[-46.8880134,-18.5083132],[-46.8880134,-18.5086434],[-46.8877025,-18.5086434],[-46.8877025,-18.5083132],[-46.8880134,-18.5083132]]],"type":"Polygon"},"properties":{},"type":"Feature"},{"geometry":{"coordinates":[[[-46.8880134,-18.5107897],[-46.8880134,-18.512936],[-46.8877025,-18.512936],[-46.8877025,-18.5137616],[-46.886977,-18.5137616],[-46.886977,-18.512936],[-46.8871843,-18.512936],[-46.8871843,-18.5121105],[-46.8874952,-18.5121105],[-46.8874952,-18.5110373],[-46.8871843,-18.5110373],[-46.8871843,-18.5107897],[-46.8880134,-18.5107897]]],"type":"Polygon"},"properties":{},"type":"Feature"},{"geometry":{"coordinates":[[[-46.8885316,-18.5005536],[-46.8885316,-18.5008012],[-46.8883243,-18.5008012],[-46.8883243,-18.5005536],[-46.8885316,-18.5005536]]],"type":"Polygon"},"properties":{},"type":"Feature"},{"geometry":{"coordinates":[[[-46.8885316,-18.5064971],[-46.8885316,-18.5067447],[-46.8883243,-18.5067447],[-46.8883243,-18.5064971],[-46.8885316,-18.5064971]]],"type":"Polygon"},"properties":{},"type":"Feature"},{"geometry":{"coordinates":[[[-46.8885316,-18.5097165],[-46.8885316,-18.5102118],[-46.8883243,-18.5102118],[-46.8883243,-18.5097165],[-46.8885316,-18.5097165]]],"type":"Polygon"},"properties":{},"type":"Feature"},{"geometry":{"coordinates":[[[-46.8885316,-18.5291171],[-46.8885316,-18.5293647],[-46.8883243,-18.5293647],[-46.8883243,-18.5291171],[-46.8885316,-18.5291171]]],"type":"Polygon"},"properties":{},"type":"Feature"},{"geometry":{"coordinates":[[[-46.8888425,-18.5078179],[-46.8888425,-18.5080655],[-46.8885316,-18.5080655],[-46.8885316,-18.5078179],[-46.8888425,-18.5078179]]],"type":"Polygon"},"properties":{},"type":"Feature"},{"geometry":{"coordinates":[[[-46.8888425,-18.5086434],[-46.8888425,-18.5097165],[-46.8885316,-18.5097165],[-46.8885316,-18.508891],[-46.8883243,-18.508891],[-46.8883243,-18.5086434],[-46.8888425,-18.5086434]]],"type":"Polygon"},"properties":{},"type":"Feature"},{"geometry":{"coordinates":[[[-46.8888425,-18.5110373],[-46.8888425,-18.511285],[-46.8885316,-18.511285],[-46.8885316,-18.5110373],[-46.8888425,-18.5110373]]],"type":"Polygon"},"properties":{},"type":"Feature"},{"geometry":{"coordinates":[[[-46.8888425,-18.5285391],[-46.8888425,-18.5291171],[-46.8885316,-18.5291171],[-46.8885316,-18.5285391],[-46.8888425,-18.5285391]]],"type":"Polygon"},"properties":{},"type":"Feature"},{"geometry":{"coordinates":[[[-46.8890498,-18.5080655],[-46.8890498,-18.5083132],[-46.8888425,-18.5083132],[-46.8888425,-18.5080655],[-46.8890498,-18.5080655]]],"type":"Polygon"},"properties":{},"type":"Feature"},{"geometry":{"coordinates":[[[-46.8890498,-18.5269705],[-46.8890498,-18.5272182],[-46.8888425,-18.5272182],[-46.8888425,-18.5269705],[-46.8890498,-18.5269705]]],"type":"Polygon"},"properties":{},"type":"Feature"},{"geometry":{"coordinates":[[[-46.8890498,-18.5339882],[-46.8890498,-18.5342359],[-46.8888425,-18.5342359],[-46.8888425,-18.5339882],[-46.8890498,-18.5339882]]],"type":"Polygon"},"properties":{},"type":"Feature"},{"geometry":{"coordinates":[[[-46.8890498,-18.5347312],[-46.8890498,-18.5353092],[-46.8885316,-18.5353092],[-46.8885316,-18.5347312],[-46.8890498,-18.5347312]]],"type":"Polygon"},"properties":{},"type":"Feature"},{"geometry":{"coordinates":[[[-46.8893607,-18.5083132],[-46.8893607,-18.5086434],[-46.8890498,-18.5086434],[-46.8890498,-18.5083132],[-46.8893607,-18.5083132]]],"type":"Polygon"},"properties":{},"type":"Feature"},{"geometry":{"coordinates":[[[-46.8893607,-18.5282915],[-46.8893607,-18.5285391],[-46.8890498,-18.5285391],[-46.8890498,-18.5282915],[-46.8893607,-18.5282915]]],"type":"Polygon"},"properties":{},"type":"Feature"},{"geometry":{"coordinates":[[[-46.8896717,-18.5045984],[-46.8896717,-18.5048461],[-46.8893607,-18.5048461],[-46.8893607,-18.5045984],[-46.8896717,-18.5045984]]],"type":"Polygon"},"properties":{},"type":"Feature"},{"geometry":{"coordinates":[[[-46.8896717,-18.5050937],[-46.8896717,-18.5054239],[-46.8901899,-18.5054239],[-46.8901899,-18.5059192],[-46.8898789,-18.5059192],[-46.8898789,-18.5061669],[-46.8896717,-18.5061669],[-46.8896717,-18.5059192],[-46.8893607,-18.5059192],[-46.8893607,-18.5050937],[-46.8896717,-18.5050937]]],"type":"Polygon"},"properties":{},"type":"Feature"},{"geometry":{"coordinates":[[[-46.8896717,-18.5280438],[-46.8896717,-18.5282915],[-46.8893607,-18.5282915],[-46.8893607,-18.5280438],[-46.8896717,-18.5280438]]],"type":"Polygon"},"properties":{},"type":"Feature"},{"geometry":{"coordinates":[[[-46.8896717,-18.5361348],[-46.8896717,-18.5366302],[-46.8890498,-18.5366302],[-46.8890498,-18.5363825],[-46.8893607,-18.5363825],[-46.8893607,-18.5361348],[-46.8896717,-18.5361348]]],"type":"Polygon"},"properties":{},"type":"Feature"},{"geometry":{"coordinates":[[[-46.8898789,-18.5035253],[-46.8898789,-18.5037729],[-46.8896717,-18.5037729],[-46.8896717,-18.5035253],[-46.8898789,-18.5035253]]],"type":"Polygon"},"properties":{},"type":"Feature"},{"geometry":{"coordinates":[[[-46.8901899,-18.5061669],[-46.8901899,-18.5067447],[-46.8896717,-18.5067447],[-46.8896717,-18.5064971],[-46.8898789,-18.5064971],[-46.8898789,-18.5061669],[-46.8901899,-18.5061669]]],"type":"Polygon"},"properties":{},"type":"Feature"},{"geometry":{"coordinates":[[[-46.8901899,-18.5242461],[-46.8901899,-18.5244938],[-46.8903971,-18.5244938],[-46.8903971,-18.5250717],[-46.8898789,-18.5250717],[-46.8898789,-18.524824],[-46.8896717,-18.524824],[-46.8896717,-18.5250717],[-46.8893607,-18.5250717],[-46.8893607,-18.5244938],[-46.8896717,-18.5244938],[-46.8896717,-18.5242461],[-46.8901899,-18.5242461]]],"type":"Polygon"},"properties":{},"type":"Feature"},{"geometry":{"coordinates":[[[-46.8901899,-18.5261449],[-46.8901899,-18.5263926],[-46.8898789,-18.5263926],[-46.8898789,-18.5261449],[-46.8901899,-18.5261449]]],"type":"Polygon"},"properties":{},"type":"Feature"},{"geometry":{"coordinates":[[[-46.8907081,-18.5026998],[-46.8907081,-18.5029475],[-46.8903971,-18.5029475],[-46.8903971,-18.5026998],[-46.8907081,-18.5026998]]],"type":"Polygon"},"properties":{},"type":"Feature"},{"geometry":{"coordinates":[[[-46.8907081,-18.5363825],[-46.8907081,-18.5366302],[-46.8901899,-18.5366302],[-46.8901899,-18.5363825],[-46.8907081,-18.5363825]]],"type":"Polygon"},"properties":{},"type":"Feature"},{"geometry":{"coordinates":[[[-46.891019,-18.502122],[-46.891019,-18.5026998],[-46.8907081,-18.5026998],[-46.8907081,-18.502122],[-46.891019,-18.502122]]],"type":"Polygon"},"properties":{},"type":"Feature"},{"geometry":{"coordinates":[[[-46.891019,-18.5358046],[-46.891019,-18.5361348],[-46.8907081,-18.5361348],[-46.8907081,-18.5358046],[-46.891019,-18.5358046]]],"type":"Polygon"},"properties":{},"type":"Feature"},{"geometry":{"coordinates":[[[-46.8912263,-18.5272182],[-46.8912263,-18.5293647],[-46.891019,-18.5293647],[-46.891019,-18.5296124],[-46.8907081,-18.5296124],[-46.8907081,-18.5301903],[-46.8903971,-18.5301903],[-46.8903971,-18.5293647],[-46.8907081,-18.5293647],[-46.8907081,-18.5272182],[-46.8912263,-18.5272182]]],"type":"Polygon"},"properties":{},"type":"Feature"},{"geometry":{"coordinates":[[[-46.8912263,-18.5334102],[-46.8912263,-18.5336579],[-46.891019,-18.5336579],[-46.891019,-18.5334102],[-46.8912263,-18.5334102]]],"type":"Polygon"},"properties":{},"type":"Feature"},{"geometry":{"coordinates":[[[-46.8912263,-18.5355569],[-46.8912263,-18.5358046],[-46.891019,-18.5358046],[-46.891019,-18.5355569],[-46.8912263,-18.5355569]]],"type":"Polygon"},"properties":{},"type":"Feature"},{"geometry":{"coordinates":[[[-46.8915372,-18.5031951],[-46.8915372,-18.5035253],[-46.8912263,-18.5035253],[-46.8912263,-18.5040206],[-46.8915372,-18.5040206],[-46.8915372,-18.5048461],[-46.8917445,-18.5048461],[-46.8917445,-18.5054239],[-46.8920554,-18.5054239],[-46.8920554,-18.5059192],[-46.8923663,-18.5059192],[-46.8923663,-18.5064971],[-46.8920554,-18.5064971],[-46.8920554,-18.5067447],[-46.8917445,-18.5067447],[-46.8917445,-18.5069924],[-46.8915372,-18.5069924],[-46.8915372,-18.5061669],[-46.8912263,-18.5061669],[-46.8912263,-18.5056716],[-46.891019,-18.5056716],[-46.891019,-18.5054239],[-46.8903971,-18.5054239],[-46.8903971,-18.5050937],[-46.8907081,-18.5050937],[-46.8907081,-18.5037729],[-46.8903971,-18.5037729],[-46.8903971,-18.5035253],[-46.8901899,-18.5035253],[-46.8901899,-18.5031951],[-46.8915372,-18.5031951]],[[-46.8912263,-18.5050937],[-46.891019,-18.5050937],[-46.891019,-18.5054239],[-46.8912263,-18.5054239],[-46.8912263,-18.5050937]]],"type":"Polygon"},"properties":{},"type":"Feature"},{"geometry":{"coordinates":[[[-46.8915372,-18.5306857],[-46.8915372,-18.531016],[-46.8912263,-18.531016],[-46.8912263,-18.5306857],[-46.8915372,-18.5306857]]],"type":"Polygon"},"properties":{},"type":"Feature"},{"geometry":{"coordinates":[[[-46.8920554,-18.5344835],[-46.8920554,-18.5353092],[-46.8912263,-18.5353092],[-46.8912263,-18.5350615],[-46.8915372,-18.5350615],[-46.8915372,-18.5347312],[-46.8917445,-18.5347312],[-46.8917445,-18.5344835],[-46.8920554,-18.5344835]]],"type":"Polygon"},"properties":{},"type":"Feature"},{"geometry":{"coordinates":[[[-46.8923663,-18.5353092],[-46.8923663,-18.5355569],[-46.8920554,-18.5355569],[-46.8920554,-18.5353092],[-46.8923663,-18.5353092]]],"type":"Polygon"},"properties":{},"type":"Feature"},{"geometry":{"coordinates":[[[-46.8930918,-18.5285391],[-46.8930918,-18.5293647],[-46.8923663,-18.5293647],[-46.8923663,-18.5288694],[-46.8928845,-18.5288694],[-46.8928845,-18.5285391],[-46.8930918,-18.5285391]]],"type":"Polygon"},"properties":{},"type":"Feature"},{"geometry":{"coordinates":[[[-46.8930918,-18.531016],[-46.8930918,-18.5312636],[-46.8928845,-18.5312636],[-46.8928845,-18.531016],[-46.8930918,-18.531016]]],"type":"Polygon"},"properties":{},"type":"Feature"},{"geometry":{"coordinates":[[[-46.8934028,-18.5067447],[-46.8934028,-18.5069924],[-46.8937137,-18.5069924],[-46.8937137,-18.5078179],[-46.8934028,-18.5078179],[-46.8934028,-18.50724],[-46.8928845,-18.50724],[-46.8928845,-18.5067447],[-46.8934028,-18.5067447]]],"type":"Polygon"},"properties":{},"type":"Feature"},{"geometry":{"coordinates":[[[-46.8937137,-18.5229252],[-46.8937137,-18.5231728],[-46.893921,-18.5231728],[-46.893921,-18.5234205],[-46.8937137,-18.5234205],[-46.8937137,-18.5237507],[-46.8934028,-18.5237507],[-46.8934028,-18.5229252],[-46.8937137,-18.5229252]]],"type":"Polygon"},"properties":{},"type":"Feature"},{"geometry":{"coordinates":[[[-46.893921,-18.5078179],[-46.893921,-18.5080655],[-46.8942319,-18.5080655],[-46.8942319,-18.5083132],[-46.8937137,-18.5083132],[-46.8937137,-18.5078179],[-46.893921,-18.5078179]]],"type":"Polygon"},"properties":{},"type":"Feature"},{"geometry":{"coordinates":[[[-46.8942319,-18.5204485],[-46.8942319,-18.5210264],[-46.8930918,-18.5210264],[-46.8930918,-18.521274],[-46.8928845,-18.521274],[-46.8928845,-18.5207787],[-46.8930918,-18.5207787],[-46.8930918,-18.5204485],[-46.8934028,-18.5204485],[-46.8934028,-18.5207787],[-46.893921,-18.5207787],[-46.893921,-18.5204485],[-46.8942319,-18.5204485]]],"type":"Polygon"},"properties":{},"type":"Feature"},{"geometry":{"coordinates":[[[-46.8947501,-18.508891],[-46.8947501,-18.5091387],[-46.8944392,-18.5091387],[-46.8944392,-18.508891],[-46.8947501,-18.508891]]],"type":"Polygon"},"properties":{},"type":"Feature"},{"geometry":{"coordinates":[[[-46.8947501,-18.5285391],[-46.8947501,-18.5288694],[-46.8955792,-18.5288694],[-46.8955792,-18.5293647],[-46.8947501,-18.5293647],[-46.8947501,-18.5291171],[-46.8942319,-18.5291171],[-46.8942319,-18.5288694],[-46.8944392,-18.5288694],[-46.8944392,-18.5285391],[-46.8947501,-18.5285391]]],"type":"Polygon"},"properties":{},"type":"Feature"},{"geometry":{"coordinates":[[[-46.8947501,-18.5306857],[-46.8947501,-18.5312636],[-46.8944392,-18.5312636],[-46.8944392,-18.5306857],[-46.8947501,-18.5306857]]],"type":"Polygon"},"properties":{},"type":"Feature"},{"geometry":{"coordinates":[[[-46.8952683,-18.5091387],[-46.8952683,-18.5093863],[-46.8947501,-18.5093863],[-46.8947501,-18.5091387],[-46.8952683,-18.5091387]]],"type":"Polygon"},"properties":{},"type":"Feature"},{"geometry":{"coordinates":[[[-46.8952683,-18.5312636],[-46.8952683,-18.5315113],[-46.8947501,-18.5315113],[-46.8947501,-18.5312636],[-46.8952683,-18.5312636]]],"type":"Polygon"},"properties":{},"type":"Feature"},{"geometry":{"coordinates":[[[-46.8952683,-18.5320892],[-46.8952683,-18.5325846],[-46.8947501,-18.5325846],[-46.8947501,-18.5323369],[-46.8942319,-18.5323369],[-46.8942319,-18.5320892],[-46.8952683,-18.5320892]]],"type":"Polygon"},"properties":{},"type":"Feature"},{"geometry":{"coordinates":[[[-46.8955792,-18.5010489],[-46.8955792,-18.5013791],[-46.8952683,-18.5013791],[-46.8952683,-18.5010489],[-46.8955792,-18.5010489]]],"type":"Polygon"},"properties":{},"type":"Feature"},{"geometry":{"coordinates":[[[-46.8957865,-18.5293647],[-46.8957865,-18.5296124],[-46.8955792,-18.5296124],[-46.8955792,-18.5293647],[-46.8957865,-18.5293647]]],"type":"Polygon"},"properties":{},"type":"Feature"},{"geometry":{"coordinates":[[[-46.8964084,-18.4990678],[-46.8964084,-18.4991503],[-46.8966156,-18.4991503],[-46.8966156,-18.4994805],[-46.8957865,-18.4994805],[-46.8957865,-18.4991503],[-46.8952683,-18.4991503],[-46.8952683,-18.4994805],[-46.8944392,-18.4994805],[-46.8944392,-18.4997281],[-46.8937137,-18.4997281],[-46.8937137,-18.5002234],[-46.8934028,-18.5002234],[-46.8934028,-18.5005536],[-46.8928845,-18.5005536],[-46.8928845,-18.5008012],[-46.8920554,-18.5008012],[-46.8920554,-18.5010489],[-46.8917445,-18.5010489],[-46.8917445,-18.5013791],[-46.8915372,-18.5013791],[-46.8915372,-18.5016267],[-46.8912263,-18.5016267],[-46.8912263,-18.502122],[-46.891019,-18.502122],[-46.891019,-18.5018743],[-46.8901899,-18.5018743],[-46.8901899,-18.5016267],[-46.8896717,-18.5016267],[-46.8896717,-18.5010489],[-46.891019,-18.5010489],[-46.891019,-18.5008012],[-46.8907081,-18.5008012],[-46.8907081,-18.4997281],[-46.8920554,-18.4997281],[-46.8920554,-18.4994805],[-46.8923663,-18.4994805],[-46.8923663,-18.4991503],[-46.89247,-18.4991503],[-46.89247,-18.4990678],[-46.8928845,-18.4990678],[-46.8928845,-18.4999758],[-46.8934028,-18.4999758],[-46.8934028,-18.4997281],[-46.8930918,-18.4997281],[-46.8930918,-18.4994805],[-46.893921,-18.4994805],[-46.893921,-18.4991503],[-46.8947501,-18.4991503],[-46.8947501,-18.4990678],[-46.8964084,-18.4990678]],[[-46.8925736,-18.4994805],[-46.8923663,-18.4994805],[-46.8923663,-18.4999758],[-46.8925736,-18.4999758],[-46.8925736,-18.4994805]]],"type":"Polygon"},"properties":{},"type":"Feature"},{"geometry":{"coordinates":[[[-46.8964084,-18.510542],[-46.8964084,-18.5107897],[-46.8966156,-18.5107897],[-46.8966156,-18.5110373],[-46.8969266,-18.5110373],[-46.8969266,-18.5118629],[-46.8971339,-18.5118629],[-46.8971339,-18.5121105],[-46.897963,-18.5121105],[-46.897963,-18.5126884],[-46.8971339,-18.5126884],[-46.8971339,-18.512936],[-46.8977557,-18.512936],[-46.8977557,-18.5131837],[-46.897963,-18.5131837],[-46.897963,-18.5137616],[-46.8971339,-18.5137616],[-46.8971339,-18.5140092],[-46.8969266,-18.5140092],[-46.8969266,-18.5142569],[-46.8966156,-18.5142569],[-46.8966156,-18.5140092],[-46.8964084,-18.5140092],[-46.8964084,-18.5131837],[-46.8966156,-18.5131837],[-46.8966156,-18.5118629],[-46.8964084,-18.5118629],[-46.8964084,-18.511285],[-46.8960974,-18.511285],[-46.8960974,-18.510542],[-46.8964084,-18.510542]]],"type":"Polygon"},"properties":{},"type":"Feature"},{"geometry":{"coordinates":[[[-46.8969266,-18.5261449],[-46.8969266,-18.5263926],[-46.8966156,-18.5263926],[-46.8966156,-18.5261449],[-46.8969266,-18.5261449]]],"type":"Polygon"},"properties":{},"type":"Feature"},{"geometry":{"coordinates":[[[-46.8971339,-18.4997281],[-46.8971339,-18.5005536],[-46.8966156,-18.5005536],[-46.8966156,-18.4997281],[-46.8971339,-18.4997281]]],"type":"Polygon"},"properties":{},"type":"Feature"},{"geometry":{"coordinates":[[[-46.897963,-18.524824],[-46.897963,-18.5250717],[-46.8977557,-18.5250717],[-46.8977557,-18.524824],[-46.897963,-18.524824]]],"type":"Polygon"},"properties":{},"type":"Feature"},{"geometry":{"coordinates":[[[-46.8993103,-18.5306857],[-46.8993103,-18.5312636],[-46.899103,-18.5312636],[-46.899103,-18.5306857],[-46.8993103,-18.5306857]]],"type":"Polygon"},"properties":{},"type":"Feature"},{"geometry":{"coordinates":[[[-46.9001395,-18.5269705],[-46.9001395,-18.5272182],[-46.8998285,-18.5272182],[-46.8998285,-18.5269705],[-46.9001395,-18.5269705]]],"type":"Polygon"},"properties":{},"type":"Feature"},{"geometry":{"coordinates":[[[-46.9006577,-18.5016267],[-46.9006577,-18.5018743],[-46.9004504,-18.5018743],[-46.9004504,-18.5016267],[-46.9006577,-18.5016267]]],"type":"Polygon"},"properties":{},"type":"Feature"},{"geometry":{"coordinates":[[[-46.9014868,-18.5110373],[-46.9014868,-18.511285],[-46.9011759,-18.511285],[-46.9011759,-18.5110373],[-46.9014868,-18.5110373]]],"type":"Polygon"},"properties":{},"type":"Feature"},{"geometry":{"coordinates":[[[-46.9033524,-18.4997281],[-46.9033524,-18.5002234],[-46.9031451,-18.5002234],[-46.9031451,-18.4997281],[-46.9033524,-18.4997281]]],"type":"Polygon"},"properties":{},"type":"Feature"},{"geometry":{"coordinates":[[[-46.9041815,-18.5008012],[-46.9041815,-18.5013791],[-46.9044924,-18.5013791],[-46.9044924,-18.5018743],[-46.9036633,-18.5018743],[-46.9036633,-18.5008012],[-46.9041815,-18.5008012]]],"type":"Polygon"},"properties":{},"type":"Feature"},{"geometry":{"coordinates":[[[-46.9077053,-18.5134313],[-46.9077053,-18.5140092],[-46.9071871,-18.5140092],[-46.9071871,-18.5134313],[-46.9077053,-18.5134313]]],"type":"Polygon"},"properties":{},"type":"Feature"},{"geometry":{"coordinates":[[[-46.9079126,-18.5244938],[-46.9079126,-18.524824],[-46.9077053,-18.524824],[-46.9077053,-18.5244938],[-46.9079126,-18.5244938]]],"type":"Polygon"},"properties":{},"type":"Feature"},{"geometry":{"coordinates":[[[-46.9085344,-18.5134313],[-46.9085344,-18.5137616],[-46.9082235,-18.5137616],[-46.9082235,-18.5134313],[-46.9085344,-18.5134313]]],"type":"Polygon"},"properties":{},"type":"Feature"},{"geometry":{"coordinates":[[[-46.9085344,-18.5229252],[-46.9085344,-18.5231728],[-46.9082235,-18.5231728],[-46.9082235,-18.5234205],[-46.9079126,-18.5234205],[-46.9079126,-18.5229252],[-46.9085344,-18.5229252]]],"type":"Polygon"},"properties":{},"type":"Feature"},{"geometry":{"coordinates":[[[-46.9085344,-18.5242461],[-46.9085344,-18.524824],[-46.9090526,-18.524824],[-46.9090526,-18.5253193],[-46.9095709,-18.5253193],[-46.9095709,-18.524824],[-46.9104,-18.524824],[-46.9104,-18.5244938],[-46.9109182,-18.5244938],[-46.9109182,-18.524824],[-46.9112291,-18.524824],[-46.9112291,-18.525567],[-46.9114364,-18.525567],[-46.9114364,-18.5258972],[-46.9106073,-18.5258972],[-46.9106073,-18.5261449],[-46.9104,-18.5261449],[-46.9104,-18.5266403],[-46.9098818,-18.5266403],[-46.9098818,-18.5269705],[-46.9095709,-18.5269705],[-46.9095709,-18.5266403],[-46.9092599,-18.5266403],[-46.9092599,-18.5261449],[-46.9090526,-18.5261449],[-46.9090526,-18.5258972],[-46.9087417,-18.5258972],[-46.9087417,-18.5253193],[-46.9082235,-18.5253193],[-46.9082235,-18.5244938],[-46.9079126,-18.5244938],[-46.9079126,-18.5242461],[-46.9085344,-18.5242461]]],"type":"Polygon"},"properties":{},"type":"Feature"},{"geometry":{"coordinates":[[[-46.9087417,-18.5237507],[-46.9087417,-18.5239984],[-46.9085344,-18.5239984],[-46.9085344,-18.5237507],[-46.9087417,-18.5237507]]],"type":"Polygon"},"properties":{},"type":"Feature"},{"geometry":{"coordinates":[[[-46.9095709,-18.5078179],[-46.9095709,-18.5080655],[-46.9092599,-18.5080655],[-46.9092599,-18.5083132],[-46.9087417,-18.5083132],[-46.9087417,-18.5078179],[-46.9095709,-18.5078179]]],"type":"Polygon"},"properties":{},"type":"Feature"},{"geometry":{"coordinates":[[[-46.9104,-18.5069924],[-46.9104,-18.5078179],[-46.9095709,-18.5078179],[-46.9095709,-18.50724],[-46.9098818,-18.50724],[-46.9098818,-18.5069924],[-46.9104,-18.5069924]]],"type":"Polygon"},"properties":{},"type":"Feature"},{"geometry":{"coordinates":[[[-46.9106073,-18.5231728],[-46.9106073,-18.5234205],[-46.9104,-18.5234205],[-46.9104,-18.5231728],[-46.9106073,-18.5231728]]],"type":"Polygon"},"properties":{},"type":"Feature"},{"geometry":{"coordinates":[[[-46.9112291,-18.5059192],[-46.9112291,-18.5064971],[-46.9106073,-18.5064971],[-46.9106073,-18.5061669],[-46.9109182,-18.5061669],[-46.9109182,-18.5059192],[-46.9112291,-18.5059192]]],"type":"Polygon"},"properties":{},"type":"Feature"},{"geometry":{"coordinates":[[[-46.9114364,-18.5185497],[-46.9114364,-18.5188799],[-46.9112291,-18.5188799],[-46.9112291,-18.5185497],[-46.9114364,-18.5185497]]],"type":"Polygon"},"properties":{},"type":"Feature"},{"geometry":{"coordinates":[[[-46.9117473,-18.5145871],[-46.9117473,-18.5148347],[-46.9112291,-18.5148347],[-46.9112291,-18.5145871],[-46.9117473,-18.5145871]]],"type":"Polygon"},"properties":{},"type":"Feature"},{"geometry":{"coordinates":[[[-46.9117473,-18.5253193],[-46.9117473,-18.525567],[-46.9114364,-18.525567],[-46.9114364,-18.5253193],[-46.9117473,-18.5253193]]],"type":"Polygon"},"properties":{},"type":"Feature"},{"geometry":{"coordinates":[[[-46.9119546,-18.5188799],[-46.9119546,-18.5191276],[-46.9117473,-18.5191276],[-46.9117473,-18.5188799],[-46.9119546,-18.5188799]]],"type":"Polygon"},"properties":{},"type":"Feature"},{"geometry":{"coordinates":[[[-46.9127837,-18.511285],[-46.9127837,-18.5116152],[-46.9130947,-18.5116152],[-46.9130947,-18.5121105],[-46.9136129,-18.5121105],[-46.9136129,-18.5126884],[-46.9127837,-18.5126884],[-46.9127837,-18.5121105],[-46.9119546,-18.5121105],[-46.9119546,-18.5118629],[-46.9122655,-18.5118629],[-46.9122655,-18.511285],[-46.9127837,-18.511285]]],"type":"Polygon"},"properties":{},"type":"Feature"},{"geometry":{"coordinates":[[[-46.9127837,-18.5148347],[-46.9127837,-18.5153301],[-46.9122655,-18.5153301],[-46.9122655,-18.5148347],[-46.9127837,-18.5148347]]],"type":"Polygon"},"properties":{},"type":"Feature"},{"geometry":{"coordinates":[[[-46.9130947,-18.5026998],[-46.9130947,-18.5029475],[-46.9127837,-18.5029475],[-46.9127837,-18.5026998],[-46.9130947,-18.5026998]]],"type":"Polygon"},"properties":{},"type":"Feature"},{"geometry":{"coordinates":[[[-46.9136129,-18.5029475],[-46.9136129,-18.5037729],[-46.913302,-18.5037729],[-46.913302,-18.5031951],[-46.9130947,-18.5031951],[-46.9130947,-18.5029475],[-46.9136129,-18.5029475]]],"type":"Polygon"},"properties":{},"type":"Feature"},{"geometry":{"coordinates":[[[-46.9136129,-18.5180544],[-46.9136129,-18.518302],[-46.913302,-18.518302],[-46.913302,-18.5180544],[-46.9136129,-18.5180544]]],"type":"Polygon"},"properties":{},"type":"Feature"},{"geometry":{"coordinates":[[[-46.9136129,-18.5210264],[-46.9136129,-18.5215217],[-46.913302,-18.5215217],[-46.913302,-18.5210264],[-46.9136129,-18.5210264]]],"type":"Polygon"},"properties":{},"type":"Feature"},{"geometry":{"coordinates":[[[-46.914442,-18.5005536],[-46.914442,-18.5008012],[-46.9141311,-18.5008012],[-46.9141311,-18.5005536],[-46.914442,-18.5005536]]],"type":"Polygon"},"properties":{},"type":"Feature"},{"geometry":{"coordinates":[[[-46.914442,-18.5083132],[-46.914442,-18.5086434],[-46.9141311,-18.5086434],[-46.9141311,-18.508891],[-46.9136129,-18.508891],[-46.9136129,-18.5086434],[-46.9139238,-18.5086434],[-46.9139238,-18.5083132],[-46.914442,-18.5083132]]],"type":"Polygon"},"properties":{},"type":"Feature"},{"geometry":{"coordinates":[[[-46.9146493,-18.512936],[-46.9146493,-18.5131837],[-46.9168258,-18.5131837],[-46.9168258,-18.5134313],[-46.9171367,-18.5134313],[-46.9171367,-18.5140092],[-46.917344,-18.5140092],[-46.917344,-18.5145871],[-46.9171367,-18.5145871],[-46.9171367,-18.5142569],[-46.9168258,-18.5142569],[-46.9168258,-18.5140092],[-46.9163076,-18.5140092],[-46.9163076,-18.5137616],[-46.9157894,-18.5137616],[-46.9157894,-18.5134313],[-46.9154784,-18.5134313],[-46.9154784,-18.5137616],[-46.9152711,-18.5137616],[-46.9152711,-18.5134313],[-46.914442,-18.5134313],[-46.914442,-18.5131837],[-46.9141311,-18.5131837],[-46.9141311,-18.512936],[-46.9146493,-18.512936]]],"type":"Polygon"},"properties":{},"type":"Feature"},{"geometry":{"coordinates":[[[-46.9146493,-18.5164033],[-46.9146493,-18.5169811],[-46.9141311,-18.5169811],[-46.9141311,-18.5167335],[-46.914442,-18.5167335],[-46.914442,-18.5164033],[-46.9146493,-18.5164033]]],"type":"Polygon"},"properties":{},"type":"Feature"},{"geometry":{"coordinates":[[[-46.9152711,-18.5086434],[-46.9152711,-18.508891],[-46.9146493,-18.508891],[-46.9146493,-18.5086434],[-46.9152711,-18.5086434]]],"type":"Polygon"},"properties":{},"type":"Feature"},{"geometry":{"coordinates":[[[-46.9154784,-18.5013791],[-46.9154784,-18.5016267],[-46.9152711,-18.5016267],[-46.9152711,-18.5013791],[-46.9154784,-18.5013791]]],"type":"Polygon"},"properties":{},"type":"Feature"},{"geometry":{"coordinates":[[[-46.9157894,-18.530438],[-46.9157894,-18.5306857],[-46.9154784,-18.5306857],[-46.9154784,-18.530438],[-46.9157894,-18.530438]]],"type":"Polygon"},"properties":{},"type":"Feature"},{"geometry":{"coordinates":[[[-46.9157894,-18.5358046],[-46.9157894,-18.5363825],[-46.9146493,-18.5363825],[-46.9146493,-18.5361348],[-46.9152711,-18.5361348],[-46.9152711,-18.5358046],[-46.9157894,-18.5358046]]],"type":"Polygon"},"properties":{},"type":"Feature"},{"geometry":{"coordinates":[[[-46.9159966,-18.5269705],[-46.9159966,-18.5282915],[-46.9154784,-18.5282915],[-46.9154784,-18.5280438],[-46.9157894,-18.5280438],[-46.9157894,-18.5269705],[-46.9159966,-18.5269705]]],"type":"Polygon"},"properties":{},"type":"Feature"},{"geometry":{"coordinates":[[[-46.9159966,-18.5285391],[-46.9159966,-18.5291171],[-46.9157894,-18.5291171],[-46.9157894,-18.5285391],[-46.9159966,-18.5285391]]],"type":"Polygon"},"properties":{},"type":"Feature"},{"geometry":{"coordinates":[[[-46.9166185,-18.5159079],[-46.9166185,-18.5161556],[-46.9159966,-18.5161556],[-46.9159966,-18.5159079],[-46.9166185,-18.5159079]]],"type":"Polygon"},"properties":{},"type":"Feature"},{"geometry":{"coordinates":[[[-46.9168258,-18.5008012],[-46.9168258,-18.5010489],[-46.9171367,-18.5010489],[-46.9171367,-18.5013791],[-46.9166185,-18.5013791],[-46.9166185,-18.5008012],[-46.9168258,-18.5008012]]],"type":"Polygon"},"properties":{},"type":"Feature"},{"geometry":{"coordinates":[[[-46.9168258,-18.5153301],[-46.9168258,-18.5156603],[-46.9166185,-18.5156603],[-46.9166185,-18.5153301],[-46.9168258,-18.5153301]]],"type":"Polygon"},"properties":{},"type":"Feature"},{"geometry":{"coordinates":[[[-46.9168258,-18.5261449],[-46.9168258,-18.5263926],[-46.9163076,-18.5263926],[-46.9163076,-18.5266403],[-46.9159966,-18.5266403],[-46.9159966,-18.5261449],[-46.9168258,-18.5261449]]],"type":"Polygon"},"properties":{},"type":"Feature"},{"geometry":{"coordinates":[[[-46.9168258,-18.5285391],[-46.9168258,-18.5288694],[-46.9163076,-18.5288694],[-46.9163076,-18.5285391],[-46.9168258,-18.5285391]]],"type":"Polygon"},"properties":{},"type":"Feature"},{"geometry":{"coordinates":[[[-46.9171367,-18.5037729],[-46.9171367,-18.5042682],[-46.9172403,-18.5042682],[-46.9172403,-18.5054239],[-46.9154784,-18.5054239],[-46.9154784,-18.5048461],[-46.9146493,-18.5048461],[-46.9146493,-18.5054239],[-46.9139238,-18.5054239],[-46.9139238,-18.5056716],[-46.9136129,-18.5056716],[-46.9136129,-18.5048461],[-46.9141311,-18.5048461],[-46.9141311,-18.5042682],[-46.9136129,-18.5042682],[-46.9136129,-18.5037729],[-46.9139238,-18.5037729],[-46.9139238,-18.5040206],[-46.9146493,-18.5040206],[-46.9146493,-18.5042682],[-46.9159966,-18.5042682],[-46.9159966,-18.5045984],[-46.9163076,-18.5045984],[-46.9163076,-18.5042682],[-46.9168258,-18.5042682],[-46.9168258,-18.5037729],[-46.9171367,-18.5037729]]],"type":"Polygon"},"properties":{},"type":"Feature"},{"geometry":{"coordinates":[[[-46.9171367,-18.5145871],[-46.9171367,-18.5148347],[-46.9168258,-18.5148347],[-46.9168258,-18.5145871],[-46.9171367,-18.5145871]]],"type":"Polygon"},"properties":{},"type":"Feature"},{"geometry":{"coordinates":[[[-46.9172403,-18.5080655],[-46.9172403,-18.5083132],[-46.9171367,-18.5083132],[-46.9171367,-18.5080655],[-46.9172403,-18.5080655]]],"type":"Polygon"},"properties":{},"type":"Feature"},{"geometry":{"coordinates":[[[-46.9174476,-18.524824],[-46.9174476,-18.5261449],[-46.9168258,-18.5261449],[-46.9168258,-18.525567],[-46.9171367,-18.525567],[-46.9171367,-18.524824],[-46.9174476,-18.524824]]],"type":"Polygon"},"properties":{},"type":"Feature"}],"type":"FeatureCollection"}
