{"features":[{"geometry":{"coordinates":[[[-46.8823131,-18.5052588],[-46.8823131,-18.5056716],[-46.8821058,-18.5056716],[-46.8821058,-18.5059192],[-46.8817949,-18.5059192],[-46.8817949,-18.5061669],[-46.8809658,-18.5061669],[-46.8809658,-18.5064971],[-46.8807585,-18.5064971],[-46.8807585,-18.5059192],[-46.8804475,-18.5059192],[-46.8804475,-18.5056716],[-46.8809658,-18.5056716],[-46.8809658,-18.5057541],[-46.8810694,-18.5057541],[-46.8810694,-18.5058367],[-46.881173,-18.5058367],[-46.881173,-18.5057541],[-46.8815876,-18.5057541],[-46.8815876,-18.5055065],[-46.8816912,-18.5055065],[-46.8816912,-18.5054239],[-46.8817949,-18.5054239],[-46.8817949,-18.5052588],[-46.8823131,-18.5052588]]],"type":"Polygon"},"properties":{},"type":"Feature"},{"geometry":{"coordinates":[[[-46.8829349,-18.5218519],[-46.8829349,-18.5220996],[-46.882624,-18.5220996],[-46.882624,-18.5218519],[-46.8829349,-18.5218519]]],"type":"Polygon"},"properties":{},"type":"Feature"},{"geometry":{"coordinates":[[[-46.8831422,-18.5078179],[-46.8831422,-18.5080655],[-46.8829349,-18.5080655],[-46.8829349,-18.5078179],[-46.8831422,-18.5078179]]],"type":"Polygon"},"properties":{},"type":"Feature"},{"geometry":{"coordinates":[[[-46.8834532,-18.5041031],[-46.8834532,-18.5042682],[-46.8831422,-18.5042682],[-46.8831422,-18.5045984],[-46.8829349,-18.5045984],[-46.8829349,-18.5048461],[-46.882624,-18.5048461],[-46.882624,-18.5050937],[-46.8823131,-18.5050937],[-46.8823131,-18.5050112],[-46.8825204,-18.5050112],[-46.8825204,-18.5041031],[-46.8834532,-18.5041031]]],"type":"Polygon"},"properties":{},"type":"Feature"},{"geometry":{"coordinates":[[[-46.8834532,-18.5140092],[-46.8834532,-18.5140918],[-46.8833495,-18.5140918],[-46.8833495,-18.5140092],[-46.8834532,-18.5140092]]],"type":"Polygon"},"properties":{},"type":"Feature"},{"geometry":{"coordinates":[[[-46.8834532,-18.5218519],[-46.8834532,-18.5223473],[-46.8831422,-18.5223473],[-46.8831422,-18.5218519],[-46.8834532,-18.5218519]]],"type":"Polygon"},"properties":{},"type":"Feature"},{"geometry":{"coordinates":[[[-46.8839714,-18.5223473],[-46.8839714,-18.5225949],[-46.8834532,-18.5225949],[-46.8834532,-18.5223473],[-46.8839714,-18.5223473]]],"type":"Polygon"},"properties":{},"type":"Feature"},{"geometry":{"coordinates":[[[-46.8844896,-18.5142569],[-46.8844896,-18.5145871],[-46.8842823,-18.5145871],[-46.8842823,-18.514422],[-46.8839714,-18.514422],[-46.8839714,-18.5142569],[-46.8844896,-18.5142569]]],"type":"Polygon"},"properties":{},"type":"Feature"},{"geometry":{"coordinates":[[[-46.8848005,-18.502122],[-46.8848005,-18.5024522],[-46.8853187,-18.5024522],[-46.8853187,-18.5026998],[-46.8850078,-18.5026998],[-46.8850078,-18.5031951],[-46.8848005,-18.5031951],[-46.8848005,-18.5029475],[-46.8844896,-18.5029475],[-46.8844896,-18.5031951],[-46.8839714,-18.5031951],[-46.8839714,-18.5032777],[-46.8833495,-18.5032777],[-46.8833495,-18.5029475],[-46.8834532,-18.5029475],[-46.8834532,-18.5024522],[-46.8836604,-18.5024522],[-46.8836604,-18.502122],[-46.8848005,-18.502122]]],"type":"Polygon"},"properties":{},"type":"Feature"},{"geometry":{"coordinates":[[[-46.8853187,-18.5075702],[-46.8853187,-18.5078179],[-46.8850078,-18.5078179],[-46.8850078,-18.5075702],[-46.8853187,-18.5075702]]],"type":"Polygon"},"properties":{},"type":"Feature"},{"geometry":{"coordinates":[[[-46.8874952,-18.5016267],[-46.8874952,-18.5018743],[-46.8871843,-18.5018743],[-46.8871843,-18.5016267],[-46.8874952,-18.5016267]]],"type":"Polygon"},"properties":{},"type":"Feature"},{"geometry":{"coordinates":[[[-46.8883243,-18.5013791],[-46.8883243,-18.5016267],[-46.8882207,-18.5016267],[-46.8882207,-18.5015442],[-46.888117,-18.5015442],[-46.888117,-18.5013791],[-46.8883243,-18.5013791]]],"type":"Polygon"},"properties":{},"type":"Feature"},{"geometry":{"coordinates":[[[-46.8896717,-18.5078179],[-46.8896717,-18.5079004],[-46.8893607,-18.5079004],[-46.8893607,-18.5078179],[-46.8896717,-18.5078179]]],"type":"Polygon"},"properties":{},"type":"Feature"},{"geometry":{"coordinates":[[[-46.8908117,-18.4991503],[-46.8908117,-18.4993154],[-46.8909154,-18.4993154],[-46.8909154,-18.4993979],[-46.891019,-18.4993979],[-46.891019,-18.4997281],[-46.8912263,-18.4997281],[-46.8912263,-18.4998107],[-46.8913299,-18.4998107],[-46.8913299,-18.4998932],[-46.8914336,-18.4998932],[-46.8914336,-18.4999758],[-46.8915372,-18.4999758],[-46.8915372,-18.5001409],[-46.8916408,-18.5001409],[-46.8916408,-18.5000583],[-46.8917445,-18.5000583],[-46.8917445,-18.5005536],[-46.8915372,-18.5005536],[-46.8915372,-18.5008012],[-46.8907081,-18.5008012],[-46.8907081,-18.5013791],[-46.8903971,-18.5013791],[-46.8903971,-18.5016267],[-46.8896717,-18.5016267],[-46.8896717,-18.5018743],[-46.8890498,-18.5018743],[-46.8890498,-18.5024522],[-46.8885316,-18.5024522],[-46.8885316,-18.502122],[-46.8877025,-18.502122],[-46.8877025,-18.5018743],[-46.8883243,-18.5018743],[-46.8883243,-18.5019569],[-46.8885316,-18.5019569],[-46.8885316,-18.5014616],[-46.888428,-18.5014616],[-46.888428,-18.5013791],[-46.8883243,-18.5013791],[-46.8883243,-18.501214],[-46.8880134,-18.501214],[-46.8880134,-18.5011314],[-46.8877025,-18.5011314],[-46.8877025,-18.5010489],[-46.8873915,-18.5010489],[-46.8873915,-18.5009663],[-46.886977,-18.5009663],[-46.886977,-18.5008838],[-46.8867697,-18.5008838],[-46.8867697,-18.5008012],[-46.886666,-18.5008012],[-46.886666,-18.5005536],[-46.8861478,-18.5005536],[-46.8861478,-18.4991503],[-46.8908117,-18.4991503]]],"type":"Polygon"},"properties":{},"type":"Feature"},{"geometry":{"coordinates":[[[-46.9067725,-18.5230077],[-46.9067725,-18.5237507],[-46.9068762,-18.5237507],[-46.9068762,-18.5241635],[-46.9067725,-18.5241635],[-46.9067725,-18.5244112],[-46.9068762,-18.5244112],[-46.9068762,-18.5251542],[-46.9067725,-18.5251542],[-46.9067725,-18.5253193],[-46.9066689,-18.5253193],[-46.9066689,-18.5230077],[-46.9067725,-18.5230077]]],"type":"Polygon"},"properties":{},"type":"Feature"},{"geometry":{"coordinates":[[[-46.9082235,-18.525567],[-46.9082235,-18.5258972],[-46.9085344,-18.5258972],[-46.9085344,-18.5261449],[-46.9087417,-18.5261449],[-46.9087417,-18.5266403],[-46.9090526,-18.5266403],[-46.9090526,-18.5272182],[-46.9087417,-18.5272182],[-46.9087417,-18.5274659],[-46.9085344,-18.5274659],[-46.9085344,-18.5277135],[-46.9082235,-18.5277135],[-46.9082235,-18.5280438],[-46.9068762,-18.5280438],[-46.9068762,-18.5269705],[-46.9065652,-18.5269705],[-46.9065652,-18.5258972],[-46.9068762,-18.5258972],[-46.9068762,-18.525567],[-46.9082235,-18.525567]]],"type":"Polygon"},"properties":{},"type":"Feature"}],"type":"FeatureCollection"}
