{"features":[{"geometry":{"coordinates":[[[-46.878582,-18.5230077],[-46.878582,-18.5230903],[-46.8784784,-18.5230903],[-46.8784784,-18.5230077],[-46.878582,-18.5230077]]],"type":"Polygon"},"properties":{},"type":"Feature"},{"geometry":{"coordinates":[[[-46.8803439,-18.5349789],[-46.8803439,-18.5350615],[-46.8802403,-18.5350615],[-46.8802403,-18.5349789],[-46.8803439,-18.5349789]]],"type":"Polygon"},"properties":{},"type":"Feature"},{"geometry":{"coordinates":[[[-46.881484,-18.5234205],[-46.881484,-18.5235031],[-46.8813803,-18.5235031],[-46.8813803,-18.5234205],[-46.881484,-18.5234205]]],"type":"Polygon"},"properties":{},"type":"Feature"},{"geometry":{"coordinates":[[[-46.8815876,-18.5079004],[-46.8815876,-18.507983],[-46.8813803,-18.507983],[-46.8813803,-18.5080655],[-46.881173,-18.5080655],[-46.881173,-18.507983],[-46.8812767,-18.507983],[-46.8812767,-18.5079004],[-46.8815876,-18.5079004]]],"type":"Polygon"},"properties":{},"type":"Feature"},{"geometry":{"coordinates":[[[-46.8822095,-18.5073226],[-46.8822095,-18.5074877],[-46.8823131,-18.5074877],[-46.8823131,-18.5075702],[-46.8820022,-18.5075702],[-46.8820022,-18.5076528],[-46.8821058,-18.5076528],[-46.8821058,-18.5077353],[-46.8823131,-18.5077353],[-46.8823131,-18.507983],[-46.8822095,-18.507983],[-46.8822095,-18.5083132],[-46.8821058,-18.5083132],[-46.8821058,-18.5082306],[-46.8820022,-18.5082306],[-46.8820022,-18.5081481],[-46.8818985,-18.5081481],[-46.8818985,-18.5080655],[-46.8817949,-18.5080655],[-46.8817949,-18.507983],[-46.8816912,-18.507983],[-46.8816912,-18.5079004],[-46.8815876,-18.5079004],[-46.8815876,-18.5077353],[-46.8818985,-18.5077353],[-46.8818985,-18.5075702],[-46.8817949,-18.5075702],[-46.8817949,-18.5074877],[-46.8820022,-18.5074877],[-46.8820022,-18.5073226],[-46.8822095,-18.5073226]]],"type":"Polygon"},"properties":{},"type":"Feature"},{"geometry":{"coordinates":[[[-46.8822095,-18.5315939],[-46.8822095,-18.5316764],[-46.8823131,-18.5316764],[-46.8823131,-18.53308],[-46.8822095,-18.53308],[-46.8822095,-18.5332451],[-46.8820022,-18.5332451],[-46.8820022,-18.5334928],[-46.8818985,-18.5334928],[-46.8818985,-18.5337405],[-46.8817949,-18.5337405],[-46.8817949,-18.5339882],[-46.8815876,-18.5339882],[-46.8815876,-18.5342359],[-46.8816912,-18.5342359],[-46.8816912,-18.5343184],[-46.8817949,-18.5343184],[-46.8817949,-18.5342359],[-46.8818985,-18.5342359],[-46.8818985,-18.534401],[-46.8816912,-18.534401],[-46.8816912,-18.5344835],[-46.8817949,-18.5344835],[-46.8817949,-18.5345661],[-46.8818985,-18.5345661],[-46.8818985,-18.5346487],[-46.8820022,-18.5346487],[-46.8820022,-18.5347312],[-46.8821058,-18.5347312],[-46.8821058,-18.5348138],[-46.8822095,-18.5348138],[-46.8822095,-18.5349789],[-46.8823131,-18.5349789],[-46.8823131,-18.5353092],[-46.8818985,-18.5353092],[-46.8818985,-18.5352266],[-46.8815876,-18.5352266],[-46.8815876,-18.5354743],[-46.881484,-18.5354743],[-46.881484,-18.535722],[-46.8813803,-18.535722],[-46.8813803,-18.5358046],[-46.8812767,-18.5358046],[-46.8812767,-18.5361348],[-46.881173,-18.5361348],[-46.881173,-18.5362174],[-46.8808621,-18.5362174],[-46.8808621,-18.5358871],[-46.8806548,-18.5358871],[-46.8806548,-18.5358046],[-46.8805512,-18.5358046],[-46.8805512,-18.5355569],[-46.8804475,-18.5355569],[-46.8804475,-18.5354743],[-46.8805512,-18.5354743],[-46.8805512,-18.5350615],[-46.8804475,-18.5350615],[-46.8804475,-18.5349789],[-46.8803439,-18.5349789],[-46.8803439,-18.5346487],[-46.8804475,-18.5346487],[-46.8804475,-18.5343184],[-46.8806548,-18.5343184],[-46.8806548,-18.533823],[-46.8805512,-18.533823],[-46.8805512,-18.5336579],[-46.8803439,-18.5336579],[-46.8803439,-18.5335754],[-46.8802403,-18.5335754],[-46.8802403,-18.5334102],[-46.880033,-18.5334102],[-46.880033,-18.5333277],[-46.8798257,-18.5333277],[-46.8798257,-18.5332451],[-46.8799293,-18.5332451],[-46.8799293,-18.5331626],[-46.8801366,-18.5331626],[-46.8801366,-18.5329974],[-46.8804475,-18.5329974],[-46.8804475,-18.53308],[-46.8805512,-18.53308],[-46.8805512,-18.5328323],[-46.8808621,-18.5328323],[-46.8808621,-18.5327497],[-46.8809658,-18.5327497],[-46.8809658,-18.5325846],[-46.8810694,-18.5325846],[-46.8810694,-18.5325021],[-46.8812767,-18.5325021],[-46.8812767,-18.5324195],[-46.8815876,-18.5324195],[-46.8815876,-18.5319241],[-46.8817949,-18.5319241],[-46.8817949,-18.531759],[-46.8820022,-18.531759],[-46.8820022,-18.5315939],[-46.8822095,-18.5315939]],[[-46.8805512,-18.5346487],[-46.8804475,-18.5346487],[-46.8804475,-18.5348138],[-46.8805512,-18.5348138],[-46.8805512,-18.5346487]]],"type":"Polygon"},"properties":{},"type":"Feature"},{"geometry":{"coordinates":[[[-46.8836604,-18.5242461],[-46.8836604,-18.5244112],[-46.8835568,-18.5244112],[-46.8835568,-18.5242461],[-46.8836604,-18.5242461]]],"type":"Polygon"},"properties":{},"type":"Feature"},{"geometry":{"coordinates":[[[-46.8841786,-18.5176416],[-46.8841786,-18.518302],[-46.8846969,-18.518302],[-46.8846969,-18.5183846],[-46.8849041,-18.5183846],[-46.8849041,-18.5184671],[-46.8850078,-18.5184671],[-46.8850078,-18.5185497],[-46.8849041,-18.5185497],[-46.8849041,-18.5187148],[-46.8848005,-18.5187148],[-46.8848005,-18.5188799],[-46.8845932,-18.5188799],[-46.8845932,-18.5192927],[-46.8844896,-18.5192927],[-46.8844896,-18.5194578],[-46.8843859,-18.5194578],[-46.8843859,-18.519788],[-46.8842823,-18.519788],[-46.8842823,-18.5202008],[-46.8843859,-18.5202008],[-46.8843859,-18.5203659],[-46.8849041,-18.5203659],[-46.8849041,-18.5204485],[-46.8848005,-18.5204485],[-46.8848005,-18.5207787],[-46.8846969,-18.5207787],[-46.8846969,-18.5208612],[-46.8845932,-18.5208612],[-46.8845932,-18.5211089],[-46.8844896,-18.5211089],[-46.8844896,-18.5207787],[-46.8842823,-18.5207787],[-46.8842823,-18.521274],[-46.8843859,-18.521274],[-46.8843859,-18.5215217],[-46.8842823,-18.5215217],[-46.8842823,-18.5218519],[-46.8841786,-18.5218519],[-46.8841786,-18.5219345],[-46.8842823,-18.5219345],[-46.8842823,-18.5221821],[-46.8841786,-18.5221821],[-46.8841786,-18.5222647],[-46.8839714,-18.5222647],[-46.8839714,-18.5225949],[-46.8841786,-18.5225949],[-46.8841786,-18.5230077],[-46.884075,-18.5230077],[-46.884075,-18.5230903],[-46.8838677,-18.5230903],[-46.8838677,-18.5231728],[-46.8839714,-18.5231728],[-46.8839714,-18.5234205],[-46.8838677,-18.5234205],[-46.8838677,-18.5235856],[-46.8836604,-18.5235856],[-46.8836604,-18.5238333],[-46.8835568,-18.5238333],[-46.8835568,-18.5239159],[-46.8836604,-18.5239159],[-46.8836604,-18.5239984],[-46.8834532,-18.5239984],[-46.8834532,-18.5241635],[-46.8835568,-18.5241635],[-46.8835568,-18.5242461],[-46.8832459,-18.5242461],[-46.8832459,-18.5244938],[-46.8835568,-18.5244938],[-46.8835568,-18.5245763],[-46.8834532,-18.5245763],[-46.8834532,-18.5246589],[-46.8833495,-18.5246589],[-46.8833495,-18.5249891],[-46.8832459,-18.5249891],[-46.8832459,-18.5253193],[-46.8831422,-18.5253193],[-46.8831422,-18.525567],[-46.8830386,-18.525567],[-46.8830386,-18.5258147],[-46.8829349,-18.5258147],[-46.8829349,-18.5258972],[-46.8825204,-18.5258972],[-46.8825204,-18.5261449],[-46.8824167,-18.5261449],[-46.8824167,-18.524824],[-46.8823131,-18.524824],[-46.8823131,-18.5241635],[-46.8822095,-18.5241635],[-46.8822095,-18.5239159],[-46.8823131,-18.5239159],[-46.8823131,-18.5237507],[-46.8822095,-18.5237507],[-46.8822095,-18.5235031],[-46.8821058,-18.5235031],[-46.8821058,-18.5234205],[-46.8820022,-18.5234205],[-46.8820022,-18.5235031],[-46.8815876,-18.5235031],[-46.8815876,-18.5234205],[-46.881484,-18.5234205],[-46.881484,-18.5233379],[-46.8812767,-18.5233379],[-46.8812767,-18.5234205],[-46.881173,-18.5234205],[-46.881173,-18.5235856],[-46.8810694,-18.5235856],[-46.8810694,-18.5234205],[-46.8803439,-18.5234205],[-46.8803439,-18.5235031],[-46.8801366,-18.5235031],[-46.8801366,-18.5234205],[-46.8799293,-18.5234205],[-46.8799293,-18.5233379],[-46.8793075,-18.5233379],[-46.8793075,-18.5234205],[-46.8788929,-18.5234205],[-46.8788929,-18.5235856],[-46.8787893,-18.5235856],[-46.8787893,-18.5234205],[-46.8782711,-18.5234205],[-46.8782711,-18.5233379],[-46.8783747,-18.5233379],[-46.8783747,-18.5232554],[-46.8784784,-18.5232554],[-46.8784784,-18.5231728],[-46.878582,-18.5231728],[-46.878582,-18.5230903],[-46.8786856,-18.5230903],[-46.8786856,-18.5229252],[-46.878582,-18.5229252],[-46.878582,-18.5228426],[-46.8787893,-18.5228426],[-46.8787893,-18.5229252],[-46.8788929,-18.5229252],[-46.8788929,-18.52276],[-46.8789966,-18.52276],[-46.8789966,-18.5225949],[-46.8792038,-18.5225949],[-46.8792038,-18.5225124],[-46.8796184,-18.5225124],[-46.8796184,-18.5223473],[-46.8797221,-18.5223473],[-46.8797221,-18.5221821],[-46.8798257,-18.5221821],[-46.8798257,-18.522017],[-46.8799293,-18.522017],[-46.8799293,-18.5219345],[-46.880033,-18.5219345],[-46.880033,-18.5214391],[-46.8801366,-18.5214391],[-46.8801366,-18.5215217],[-46.8802403,-18.5215217],[-46.8802403,-18.5216043],[-46.8803439,-18.5216043],[-46.8803439,-18.5217694],[-46.8804475,-18.5217694],[-46.8804475,-18.522017],[-46.8805512,-18.522017],[-46.8805512,-18.5220996],[-46.8806548,-18.5220996],[-46.8806548,-18.5222647],[-46.8807585,-18.5222647],[-46.8807585,-18.5223473],[-46.8809658,-18.5223473],[-46.8809658,-18.5221821],[-46.8810694,-18.5221821],[-46.8810694,-18.5220996],[-46.8809658,-18.5220996],[-46.8809658,-18.522017],[-46.8812767,-18.522017],[-46.8812767,-18.5219345],[-46.8813803,-18.5219345],[-46.8813803,-18.522017],[-46.881484,-18.522017],[-46.881484,-18.5220996],[-46.8815876,-18.5220996],[-46.8815876,-18.5221821],[-46.8816912,-18.5221821],[-46.8816912,-18.5222647],[-46.8817949,-18.5222647],[-46.8817949,-18.5221821],[-46.8823131,-18.5221821],[-46.8823131,-18.522017],[-46.8824167,-18.522017],[-46.8824167,-18.5219345],[-46.882624,-18.5219345],[-46.882624,-18.5217694],[-46.8827277,-18.5217694],[-46.8827277,-18.5213566],[-46.8828313,-18.5213566],[-46.8828313,-18.5211089],[-46.8829349,-18.5211089],[-46.8829349,-18.520531],[-46.8830386,-18.520531],[-46.8830386,-18.5200357],[-46.8831422,-18.5200357],[-46.8831422,-18.5195404],[-46.8833495,-18.5195404],[-46.8833495,-18.5194578],[-46.8835568,-18.5194578],[-46.8835568,-18.5193752],[-46.8836604,-18.5193752],[-46.8836604,-18.518302],[-46.8838677,-18.518302],[-46.8838677,-18.5182195],[-46.8839714,-18.5182195],[-46.8839714,-18.5178067],[-46.884075,-18.5178067],[-46.884075,-18.5176416],[-46.8841786,-18.5176416]],[[-46.8842823,-18.521274],[-46.8839714,-18.521274],[-46.8839714,-18.5214391],[-46.8842823,-18.5214391],[-46.8842823,-18.521274]],[[-46.8832459,-18.524824],[-46.8829349,-18.524824],[-46.8829349,-18.5249891],[-46.8832459,-18.5249891],[-46.8832459,-18.524824]]],"type":"Polygon"},"properties":{},"type":"Feature"},{"geometry":{"coordinates":[[[-46.8877025,-18.5082306],[-46.8877025,-18.5084783],[-46.8875988,-18.5084783],[-46.8875988,-18.5082306],[-46.8877025,-18.5082306]]],"type":"Polygon"},"properties":{},"type":"Feature"},{"geometry":{"coordinates":[[[-46.8883243,-18.5013791],[-46.8883243,-18.5016267],[-46.8882207,-18.5016267],[-46.8882207,-18.5015442],[-46.888117,-18.5015442],[-46.888117,-18.5013791],[-46.8883243,-18.5013791]]],"type":"Polygon"},"properties":{},"type":"Feature"},{"geometry":{"coordinates":[[[-46.8894644,-18.5080655],[-46.8894644,-18.5081481],[-46.8893607,-18.5081481],[-46.8893607,-18.5080655],[-46.8894644,-18.5080655]]],"type":"Polygon"},"properties":{},"type":"Feature"},{"geometry":{"coordinates":[[[-46.8972375,-18.4990678],[-46.8972375,-18.4991503],[-46.8971339,-18.4991503],[-46.8971339,-18.4994805],[-46.8970302,-18.4994805],[-46.8970302,-18.499563],[-46.8969266,-18.499563],[-46.8969266,-18.4994805],[-46.8962011,-18.4994805],[-46.8962011,-18.499563],[-46.8959938,-18.499563],[-46.8959938,-18.4996456],[-46.8958902,-18.4996456],[-46.8958902,-18.4997281],[-46.8957865,-18.4997281],[-46.8957865,-18.4998932],[-46.8955792,-18.4998932],[-46.8955792,-18.4999758],[-46.895061,-18.4999758],[-46.895061,-18.4998932],[-46.8949574,-18.4998932],[-46.8949574,-18.4997281],[-46.895061,-18.4997281],[-46.895061,-18.4996456],[-46.8952683,-18.4996456],[-46.8952683,-18.499563],[-46.8951647,-18.499563],[-46.8951647,-18.4994805],[-46.895061,-18.4994805],[-46.895061,-18.499563],[-46.8949574,-18.499563],[-46.8949574,-18.4996456],[-46.8947501,-18.4996456],[-46.8947501,-18.4997281],[-46.8945428,-18.4997281],[-46.8945428,-18.4998107],[-46.8946465,-18.4998107],[-46.8946465,-18.4998932],[-46.8947501,-18.4998932],[-46.8947501,-18.4999758],[-46.8932991,-18.4999758],[-46.8932991,-18.5006361],[-46.8931955,-18.5006361],[-46.8931955,-18.5007187],[-46.8930918,-18.5007187],[-46.8930918,-18.501214],[-46.8927809,-18.501214],[-46.8927809,-18.5008012],[-46.8928845,-18.5008012],[-46.8928845,-18.5006361],[-46.8923663,-18.5006361],[-46.8923663,-18.5008012],[-46.8918481,-18.5008012],[-46.8918481,-18.5008838],[-46.8919518,-18.5008838],[-46.8919518,-18.5009663],[-46.8920554,-18.5009663],[-46.8920554,-18.501214],[-46.8918481,-18.501214],[-46.8918481,-18.5014616],[-46.8920554,-18.5014616],[-46.8920554,-18.5016267],[-46.8917445,-18.5016267],[-46.8917445,-18.5015442],[-46.8913299,-18.5015442],[-46.8913299,-18.5016267],[-46.8911226,-18.5016267],[-46.8911226,-18.5018743],[-46.891019,-18.5018743],[-46.891019,-18.5020394],[-46.8909154,-18.5020394],[-46.8909154,-18.5029475],[-46.8908117,-18.5029475],[-46.8908117,-18.50303],[-46.8907081,-18.50303],[-46.8907081,-18.5031126],[-46.8908117,-18.5031126],[-46.8908117,-18.5034428],[-46.8909154,-18.5034428],[-46.8909154,-18.5035253],[-46.891019,-18.5035253],[-46.891019,-18.5045159],[-46.8912263,-18.5045159],[-46.8912263,-18.5045984],[-46.891019,-18.5045984],[-46.891019,-18.5048461],[-46.8911226,-18.5048461],[-46.8911226,-18.5050112],[-46.8912263,-18.5050112],[-46.8912263,-18.5050937],[-46.8913299,-18.5050937],[-46.8913299,-18.5052588],[-46.8915372,-18.5052588],[-46.8915372,-18.5054239],[-46.8916408,-18.5054239],[-46.8916408,-18.505589],[-46.8917445,-18.505589],[-46.8917445,-18.5057541],[-46.8916408,-18.5057541],[-46.8916408,-18.5061669],[-46.8917445,-18.5061669],[-46.8917445,-18.5064971],[-46.8918481,-18.5064971],[-46.8918481,-18.5066622],[-46.8917445,-18.5066622],[-46.8917445,-18.5067447],[-46.8918481,-18.5067447],[-46.8918481,-18.5069924],[-46.8917445,-18.5069924],[-46.8917445,-18.5071575],[-46.8916408,-18.5071575],[-46.8916408,-18.50724],[-46.8913299,-18.50724],[-46.8913299,-18.5071575],[-46.8911226,-18.5071575],[-46.8911226,-18.5069924],[-46.891019,-18.5069924],[-46.891019,-18.506332],[-46.8907081,-18.506332],[-46.8907081,-18.5062494],[-46.8906044,-18.5062494],[-46.8906044,-18.5061669],[-46.8905008,-18.5061669],[-46.8905008,-18.5062494],[-46.8903971,-18.5062494],[-46.8903971,-18.506332],[-46.8900862,-18.506332],[-46.8900862,-18.5064971],[-46.8898789,-18.5064971],[-46.8898789,-18.5065796],[-46.8897753,-18.5065796],[-46.8897753,-18.5070749],[-46.8896717,-18.5070749],[-46.8896717,-18.5079004],[-46.8892571,-18.5079004],[-46.8892571,-18.507983],[-46.8890498,-18.507983],[-46.8890498,-18.5082306],[-46.8892571,-18.5082306],[-46.8892571,-18.5081481],[-46.8893607,-18.5081481],[-46.8893607,-18.5083132],[-46.8892571,-18.5083132],[-46.8892571,-18.5084783],[-46.8891534,-18.5084783],[-46.8891534,-18.5085608],[-46.8890498,-18.5085608],[-46.8890498,-18.508891],[-46.8887389,-18.508891],[-46.8887389,-18.5089736],[-46.8885316,-18.5089736],[-46.8885316,-18.5090561],[-46.8883243,-18.5090561],[-46.8883243,-18.5092212],[-46.8882207,-18.5092212],[-46.8882207,-18.5093038],[-46.888117,-18.5093038],[-46.888117,-18.5093863],[-46.8880134,-18.5093863],[-46.8880134,-18.5095514],[-46.888117,-18.5095514],[-46.888117,-18.509634],[-46.8882207,-18.509634],[-46.8882207,-18.5097165],[-46.8883243,-18.5097165],[-46.8883243,-18.5101293],[-46.8882207,-18.5101293],[-46.8882207,-18.5102944],[-46.8879097,-18.5102944],[-46.8879097,-18.510542],[-46.8878061,-18.510542],[-46.8878061,-18.5106246],[-46.8877025,-18.5106246],[-46.8877025,-18.5108722],[-46.8875988,-18.5108722],[-46.8875988,-18.5110373],[-46.8877025,-18.5110373],[-46.8877025,-18.5113675],[-46.8875988,-18.5113675],[-46.8875988,-18.5116977],[-46.8877025,-18.5116977],[-46.8877025,-18.5119454],[-46.8875988,-18.5119454],[-46.8875988,-18.5121105],[-46.8874952,-18.5121105],[-46.8874952,-18.5118629],[-46.8871843,-18.5118629],[-46.8871843,-18.5121105],[-46.8873915,-18.5121105],[-46.8873915,-18.5124407],[-46.8874952,-18.5124407],[-46.8874952,-18.5127709],[-46.8873915,-18.5127709],[-46.8873915,-18.512936],[-46.8872879,-18.512936],[-46.8872879,-18.5131011],[-46.8871843,-18.5131011],[-46.8871843,-18.5131837],[-46.8870806,-18.5131837],[-46.8870806,-18.5132662],[-46.886977,-18.5132662],[-46.886977,-18.5135964],[-46.8872879,-18.5135964],[-46.8872879,-18.513679],[-46.8873915,-18.513679],[-46.8873915,-18.5138441],[-46.8872879,-18.5138441],[-46.8872879,-18.5140092],[-46.886977,-18.5140092],[-46.886977,-18.5137616],[-46.8867697,-18.5137616],[-46.8867697,-18.5142569],[-46.8863551,-18.5142569],[-46.8863551,-18.5143394],[-46.8862515,-18.5143394],[-46.8862515,-18.514422],[-46.8861478,-18.514422],[-46.8861478,-18.5146696],[-46.8860442,-18.5146696],[-46.8860442,-18.5148347],[-46.8859406,-18.5148347],[-46.8859406,-18.5149173],[-46.8858369,-18.5149173],[-46.8858369,-18.5152475],[-46.8859406,-18.5152475],[-46.8859406,-18.5153301],[-46.8860442,-18.5153301],[-46.8860442,-18.5159079],[-46.8862515,-18.5159079],[-46.8862515,-18.5160731],[-46.8863551,-18.5160731],[-46.8863551,-18.5161556],[-46.8862515,-18.5161556],[-46.8862515,-18.5162382],[-46.8858369,-18.5162382],[-46.8858369,-18.5160731],[-46.8856296,-18.5160731],[-46.8856296,-18.5164858],[-46.8854223,-18.5164858],[-46.8854223,-18.5167335],[-46.8853187,-18.5167335],[-46.8853187,-18.5168986],[-46.8852151,-18.5168986],[-46.8852151,-18.5169811],[-46.8851114,-18.5169811],[-46.8851114,-18.5171463],[-46.8850078,-18.5171463],[-46.8850078,-18.5167335],[-46.8848005,-18.5167335],[-46.8848005,-18.5166509],[-46.8849041,-18.5166509],[-46.8849041,-18.5164858],[-46.8850078,-18.5164858],[-46.8850078,-18.5162382],[-46.8851114,-18.5162382],[-46.8851114,-18.5163207],[-46.8852151,-18.5163207],[-46.8852151,-18.5160731],[-46.8851114,-18.5160731],[-46.8851114,-18.5158254],[-46.8850078,-18.5158254],[-46.8850078,-18.5145871],[-46.8851114,-18.5145871],[-46.8851114,-18.5143394],[-46.8853187,-18.5143394],[-46.8853187,-18.5142569],[-46.8854223,-18.5142569],[-46.8854223,-18.5140918],[-46.8856296,-18.5140918],[-46.8856296,-18.5138441],[-46.8853187,-18.5138441],[-46.8853187,-18.5139267],[-46.8852151,-18.5139267],[-46.8852151,-18.513679],[-46.8851114,-18.513679],[-46.8851114,-18.5138441],[-46.8850078,-18.5138441],[-46.8850078,-18.5140092],[-46.8849041,-18.5140092],[-46.8849041,-18.514422],[-46.8846969,-18.514422],[-46.8846969,-18.5146696],[-46.8844896,-18.5146696],[-46.8844896,-18.5145871],[-46.8842823,-18.5145871],[-46.8842823,-18.514422],[-46.8839714,-18.514422],[-46.8839714,-18.5143394],[-46.8838677,-18.5143394],[-46.8838677,-18.5142569],[-46.8836604,-18.5142569],[-46.8836604,-18.5141743],[-46.8834532,-18.5141743],[-46.8834532,-18.5140918],[-46.8833495,-18.5140918],[-46.8833495,-18.5140092],[-46.8831422,-18.5140092],[-46.8831422,-18.5139267],[-46.8829349,-18.5139267],[-46.8829349,-18.5138441],[-46.8827277,-18.5138441],[-46.8827277,-18.5137616],[-46.8825204,-18.5137616],[-46.8825204,-18.513679],[-46.8823131,-18.513679],[-46.8823131,-18.5135964],[-46.8822095,-18.5135964],[-46.8822095,-18.5134313],[-46.8820022,-18.5134313],[-46.8820022,-18.5133488],[-46.8816912,-18.5133488],[-46.8816912,-18.5132662],[-46.8813803,-18.5132662],[-46.8813803,-18.5131837],[-46.8812767,-18.5131837],[-46.8812767,-18.5130186],[-46.8809658,-18.5130186],[-46.8809658,-18.512936],[-46.8808621,-18.512936],[-46.8808621,-18.5128535],[-46.8807585,-18.5128535],[-46.8807585,-18.5127709],[-46.8804475,-18.5127709],[-46.8804475,-18.5126884],[-46.8802403,-18.5126884],[-46.8802403,-18.5124407],[-46.8799293,-18.5124407],[-46.8799293,-18.5123582],[-46.8798257,-18.5123582],[-46.8798257,-18.5122756],[-46.8796184,-18.5122756],[-46.8796184,-18.5121931],[-46.8795148,-18.5121931],[-46.8795148,-18.5121105],[-46.8793075,-18.5121105],[-46.8793075,-18.512028],[-46.8792038,-18.512028],[-46.8792038,-18.5119454],[-46.8793075,-18.5119454],[-46.8793075,-18.5116977],[-46.8795148,-18.5116977],[-46.8795148,-18.5115326],[-46.8793075,-18.5115326],[-46.8793075,-18.5110373],[-46.8791002,-18.5110373],[-46.8791002,-18.5108722],[-46.8792038,-18.5108722],[-46.8792038,-18.5107897],[-46.8791002,-18.5107897],[-46.8791002,-18.510542],[-46.8789966,-18.510542],[-46.8789966,-18.5097991],[-46.8787893,-18.5097991],[-46.8787893,-18.5098816],[-46.8788929,-18.5098816],[-46.8788929,-18.5103769],[-46.8787893,-18.5103769],[-46.8787893,-18.5102944],[-46.8786856,-18.5102944],[-46.8786856,-18.5103769],[-46.878582,-18.5103769],[-46.878582,-18.5102944],[-46.8784784,-18.5102944],[-46.8784784,-18.5098816],[-46.8783747,-18.5098816],[-46.8783747,-18.5097165],[-46.8782711,-18.5097165],[-46.8782711,-18.5093863],[-46.8783747,-18.5093863],[-46.8783747,-18.5093038],[-46.8782711,-18.5093038],[-46.8782711,-18.5092212],[-46.8783747,-18.5092212],[-46.8783747,-18.5091387],[-46.8784784,-18.5091387],[-46.8784784,-18.5090561],[-46.878582,-18.5090561],[-46.878582,-18.5091387],[-46.8787893,-18.5091387],[-46.8787893,-18.5090561],[-46.8788929,-18.5090561],[-46.8788929,-18.5089736],[-46.8789966,-18.5089736],[-46.8789966,-18.508891],[-46.8792038,-18.508891],[-46.8792038,-18.5088085],[-46.8794111,-18.5088085],[-46.8794111,-18.5091387],[-46.8795148,-18.5091387],[-46.8795148,-18.5093038],[-46.8796184,-18.5093038],[-46.8796184,-18.509634],[-46.8798257,-18.509634],[-46.8798257,-18.5098816],[-46.8799293,-18.5098816],[-46.8799293,-18.5102118],[-46.8802403,-18.5102118],[-46.8802403,-18.5100467],[-46.8803439,-18.5100467],[-46.8803439,-18.5099642],[-46.8807585,-18.5099642],[-46.8807585,-18.5095514],[-46.8809658,-18.5095514],[-46.8809658,-18.5088085],[-46.881173,-18.5088085],[-46.881173,-18.508891],[-46.8812767,-18.508891],[-46.8812767,-18.5088085],[-46.8818985,-18.5088085],[-46.8818985,-18.5087259],[-46.8820022,-18.5087259],[-46.8820022,-18.5086434],[-46.8823131,-18.5086434],[-46.8823131,-18.5085608],[-46.8825204,-18.5085608],[-46.8825204,-18.5083132],[-46.882624,-18.5083132],[-46.882624,-18.5082306],[-46.8823131,-18.5082306],[-46.8823131,-18.507983],[-46.882624,-18.507983],[-46.882624,-18.5079004],[-46.8825204,-18.5079004],[-46.8825204,-18.5075702],[-46.882624,-18.5075702],[-46.882624,-18.5078179],[-46.8827277,-18.5078179],[-46.8827277,-18.5073226],[-46.8828313,-18.5073226],[-46.8828313,-18.50724],[-46.8830386,-18.50724],[-46.8830386,-18.5071575],[-46.8832459,-18.5071575],[-46.8832459,-18.5074877],[-46.8833495,-18.5074877],[-46.8833495,-18.5075702],[-46.8834532,-18.5075702],[-46.8834532,-18.5073226],[-46.8835568,-18.5073226],[-46.8835568,-18.50724],[-46.8836604,-18.50724],[-46.8836604,-18.5069924],[-46.8835568,-18.5069924],[-46.8835568,-18.5069098],[-46.8836604,-18.5069098],[-46.8836604,-18.5068273],[-46.8838677,-18.5068273],[-46.8838677,-18.5067447],[-46.8841786,-18.5067447],[-46.8841786,-18.5066622],[-46.8842823,-18.5066622],[-46.8842823,-18.5065796],[-46.8844896,-18.5065796],[-46.8844896,-18.5062494],[-46.8848005,-18.5062494],[-46.8848005,-18.506332],[-46.8849041,-18.506332],[-46.8849041,-18.5062494],[-46.8852151,-18.5062494],[-46.8852151,-18.5061669],[-46.8851114,-18.5061669],[-46.8851114,-18.5060018],[-46.8850078,-18.5060018],[-46.8850078,-18.5056716],[-46.8849041,-18.5056716],[-46.8849041,-18.505589],[-46.8846969,-18.505589],[-46.8846969,-18.5056716],[-46.8848005,-18.5056716],[-46.8848005,-18.5057541],[-46.8844896,-18.5057541],[-46.8844896,-18.5060018],[-46.8842823,-18.5060018],[-46.8842823,-18.5059192],[-46.8839714,-18.5059192],[-46.8839714,-18.5060018],[-46.8838677,-18.5060018],[-46.8838677,-18.5061669],[-46.8837641,-18.5061669],[-46.8837641,-18.506332],[-46.8836604,-18.506332],[-46.8836604,-18.5062494],[-46.8835568,-18.5062494],[-46.8835568,-18.5061669],[-46.8836604,-18.5061669],[-46.8836604,-18.5059192],[-46.8835568,-18.5059192],[-46.8835568,-18.5060018],[-46.8832459,-18.5060018],[-46.8832459,-18.5069098],[-46.8831422,-18.5069098],[-46.8831422,-18.5068273],[-46.8829349,-18.5068273],[-46.8829349,-18.5070749],[-46.882624,-18.5070749],[-46.882624,-18.5071575],[-46.8825204,-18.5071575],[-46.8825204,-18.5073226],[-46.8824167,-18.5073226],[-46.8824167,-18.50724],[-46.8813803,-18.50724],[-46.8813803,-18.5073226],[-46.881173,-18.5073226],[-46.881173,-18.5071575],[-46.8808621,-18.5071575],[-46.8808621,-18.5070749],[-46.8802403,-18.5070749],[-46.8802403,-18.5069098],[-46.8797221,-18.5069098],[-46.8797221,-18.5068273],[-46.8795148,-18.5068273],[-46.8795148,-18.5069098],[-46.8796184,-18.5069098],[-46.8796184,-18.5069924],[-46.8797221,-18.5069924],[-46.8797221,-18.50724],[-46.8796184,-18.50724],[-46.8796184,-18.5074877],[-46.8795148,-18.5074877],[-46.8795148,-18.5077353],[-46.8797221,-18.5077353],[-46.8797221,-18.507983],[-46.8795148,-18.507983],[-46.8795148,-18.5080655],[-46.8794111,-18.5080655],[-46.8794111,-18.507983],[-46.8792038,-18.507983],[-46.8792038,-18.5083132],[-46.8795148,-18.5083132],[-46.8795148,-18.5085608],[-46.8793075,-18.5085608],[-46.8793075,-18.5086434],[-46.8792038,-18.5086434],[-46.8792038,-18.5087259],[-46.8788929,-18.5087259],[-46.8788929,-18.508891],[-46.878582,-18.508891],[-46.878582,-18.5088085],[-46.8783747,-18.5088085],[-46.8783747,-18.5087259],[-46.8782711,-18.5087259],[-46.8782711,-18.5084783],[-46.8788929,-18.5084783],[-46.8788929,-18.5082306],[-46.8787893,-18.5082306],[-46.8787893,-18.507983],[-46.8784784,-18.507983],[-46.8784784,-18.5077353],[-46.8782711,-18.5077353],[-46.8782711,-18.50724],[-46.8784784,-18.50724],[-46.8784784,-18.5067447],[-46.8791002,-18.5067447],[-46.8791002,-18.5066622],[-46.8789966,-18.5066622],[-46.8789966,-18.5065796],[-46.8788929,-18.5065796],[-46.8788929,-18.5064971],[-46.8786856,-18.5064971],[-46.8786856,-18.506332],[-46.8779601,-18.506332],[-46.8779601,-18.505589],[-46.8781674,-18.505589],[-46.8781674,-18.5055065],[-46.8787893,-18.5055065],[-46.8787893,-18.505589],[-46.8792038,-18.505589],[-46.8792038,-18.5056716],[-46.8793075,-18.5056716],[-46.8793075,-18.5057541],[-46.8796184,-18.5057541],[-46.8796184,-18.5058367],[-46.8797221,-18.5058367],[-46.8797221,-18.5059192],[-46.8798257,-18.5059192],[-46.8798257,-18.5060018],[-46.8802403,-18.5060018],[-46.8802403,-18.505589],[-46.8805512,-18.505589],[-46.8805512,-18.5055065],[-46.8807585,-18.5055065],[-46.8807585,-18.505589],[-46.8809658,-18.505589],[-46.8809658,-18.5057541],[-46.8810694,-18.5057541],[-46.8810694,-18.5058367],[-46.881173,-18.5058367],[-46.881173,-18.5057541],[-46.8815876,-18.5057541],[-46.8815876,-18.5055065],[-46.8816912,-18.5055065],[-46.8816912,-18.5054239],[-46.8817949,-18.5054239],[-46.8817949,-18.5052588],[-46.8823131,-18.5052588],[-46.8823131,-18.5050112],[-46.8825204,-18.5050112],[-46.8825204,-18.5041031],[-46.8841786,-18.5041031],[-46.8841786,-18.5032777],[-46.8833495,-18.5032777],[-46.8833495,-18.5022045],[-46.8832459,-18.5022045],[-46.8832459,-18.5025347],[-46.8829349,-18.5025347],[-46.8829349,-18.5029475],[-46.882624,-18.5029475],[-46.882624,-18.50303],[-46.8825204,-18.50303],[-46.8825204,-18.5031951],[-46.8823131,-18.5031951],[-46.8823131,-18.5035253],[-46.8820022,-18.5035253],[-46.8820022,-18.5037729],[-46.881484,-18.5037729],[-46.881484,-18.5040206],[-46.8812767,-18.5040206],[-46.8812767,-18.5038555],[-46.8809658,-18.5038555],[-46.8809658,-18.5040206],[-46.8804475,-18.5040206],[-46.8804475,-18.5037729],[-46.8802403,-18.5037729],[-46.8802403,-18.5035253],[-46.8797221,-18.5035253],[-46.8797221,-18.5031951],[-46.8795148,-18.5031951],[-46.8795148,-18.5022045],[-46.8792038,-18.5022045],[-46.8792038,-18.5019569],[-46.8789966,-18.5019569],[-46.8789966,-18.5015442],[-46.8784784,-18.5015442],[-46.8784784,-18.5009663],[-46.8780638,-18.5009663],[-46.8780638,-18.5007187],[-46.8778565,-18.5007187],[-46.8778565,-18.4992329],[-46.8820022,-18.4992329],[-46.8820022,-18.4994805],[-46.8821058,-18.4994805],[-46.8821058,-18.4997281],[-46.8822095,-18.4997281],[-46.8822095,-18.4998107],[-46.8821058,-18.4998107],[-46.8821058,-18.4999758],[-46.8822095,-18.4999758],[-46.8822095,-18.5001409],[-46.8823131,-18.5001409],[-46.8823131,-18.4999758],[-46.8825204,-18.4999758],[-46.8825204,-18.5001409],[-46.882624,-18.5001409],[-46.882624,-18.4999758],[-46.8827277,-18.4999758],[-46.8827277,-18.5002234],[-46.8829349,-18.5002234],[-46.8829349,-18.5000583],[-46.8833495,-18.5000583],[-46.8833495,-18.4999758],[-46.8835568,-18.4999758],[-46.8835568,-18.4998932],[-46.8837641,-18.4998932],[-46.8837641,-18.4996456],[-46.884075,-18.4996456],[-46.884075,-18.499563],[-46.8841786,-18.499563],[-46.8841786,-18.4993979],[-46.8842823,-18.4993979],[-46.8842823,-18.4993154],[-46.8848005,-18.4993154],[-46.8848005,-18.4991503],[-46.8908117,-18.4991503],[-46.8908117,-18.4993154],[-46.8909154,-18.4993154],[-46.8909154,-18.4993979],[-46.891019,-18.4993979],[-46.891019,-18.4997281],[-46.8912263,-18.4997281],[-46.8912263,-18.4998107],[-46.8913299,-18.4998107],[-46.8913299,-18.4998932],[-46.8914336,-18.4998932],[-46.8914336,-18.4999758],[-46.8915372,-18.4999758],[-46.8915372,-18.5001409],[-46.8916408,-18.5001409],[-46.8916408,-18.5000583],[-46.8917445,-18.5000583],[-46.8917445,-18.4998932],[-46.8918481,-18.4998932],[-46.8918481,-18.4994805],[-46.8917445,-18.4994805],[-46.8917445,-18.4991503],[-46.8920554,-18.4991503],[-46.8920554,-18.4993154],[-46.89247,-18.4993154],[-46.89247,-18.4993979],[-46.8927809,-18.4993979],[-46.8927809,-18.4991503],[-46.8928845,-18.4991503],[-46.8928845,-18.4990678],[-46.8932991,-18.4990678],[-46.8932991,-18.4991503],[-46.8934028,-18.4991503],[-46.8934028,-18.4990678],[-46.8972375,-18.4990678]],[[-46.886666,-18.5007187],[-46.8864588,-18.5007187],[-46.8864588,-18.5008012],[-46.8863551,-18.5008012],[-46.8863551,-18.5008838],[-46.8864588,-18.5008838],[-46.8864588,-18.5010489],[-46.8865624,-18.5010489],[-46.8865624,-18.5011314],[-46.886977,-18.5011314],[-46.886977,-18.501214],[-46.8870806,-18.501214],[-46.8870806,-18.5013791],[-46.8874952,-18.5013791],[-46.8874952,-18.5014616],[-46.8875988,-18.5014616],[-46.8875988,-18.5016267],[-46.8877025,-18.5016267],[-46.8877025,-18.5017093],[-46.8879097,-18.5017093],[-46.8879097,-18.5017918],[-46.8883243,-18.5017918],[-46.8883243,-18.5019569],[-46.8885316,-18.5019569],[-46.8885316,-18.5014616],[-46.888428,-18.5014616],[-46.888428,-18.5013791],[-46.8883243,-18.5013791],[-46.8883243,-18.501214],[-46.8880134,-18.501214],[-46.8880134,-18.5011314],[-46.8877025,-18.5011314],[-46.8877025,-18.5010489],[-46.8873915,-18.5010489],[-46.8873915,-18.5009663],[-46.886977,-18.5009663],[-46.886977,-18.5008838],[-46.8867697,-18.5008838],[-46.8867697,-18.5008012],[-46.886666,-18.5008012],[-46.886666,-18.5007187]],[[-46.8863551,-18.5007187],[-46.8860442,-18.5007187],[-46.8860442,-18.5008012],[-46.8863551,-18.5008012],[-46.8863551,-18.5007187]],[[-46.8918481,-18.5010489],[-46.8917445,-18.5010489],[-46.8917445,-18.501214],[-46.8918481,-18.501214],[-46.8918481,-18.5010489]],[[-46.8903971,-18.5024522],[-46.8901899,-18.5024522],[-46.8901899,-18.5025347],[-46.8898789,-18.5025347],[-46.8898789,-18.5026173],[-46.8896717,-18.5026173],[-46.8896717,-18.5027824],[-46.889568,-18.5027824],[-46.889568,-18.5028649],[-46.8892571,-18.5028649],[-46.8892571,-18.5029475],[-46.8887389,-18.5029475],[-46.8887389,-18.5028649],[-46.8877025,-18.5028649],[-46.8877025,-18.5031951],[-46.8883243,-18.5031951],[-46.8883243,-18.5032777],[-46.888428,-18.5032777],[-46.888428,-18.5035253],[-46.8885316,-18.5035253],[-46.8885316,-18.5034428],[-46.8886352,-18.5034428],[-46.8886352,-18.5035253],[-46.8892571,-18.5035253],[-46.8892571,-18.5040206],[-46.8890498,-18.5040206],[-46.8890498,-18.5041031],[-46.8891534,-18.5041031],[-46.8891534,-18.5044333],[-46.8892571,-18.5044333],[-46.8892571,-18.5041031],[-46.8893607,-18.5041031],[-46.8893607,-18.503938],[-46.8894644,-18.503938],[-46.8894644,-18.5040206],[-46.889568,-18.5040206],[-46.889568,-18.5041031],[-46.8896717,-18.5041031],[-46.8896717,-18.5035253],[-46.8897753,-18.5035253],[-46.8897753,-18.5031126],[-46.8898789,-18.5031126],[-46.8898789,-18.5029475],[-46.8899826,-18.5029475],[-46.8899826,-18.5028649],[-46.8900862,-18.5028649],[-46.8900862,-18.5027824],[-46.8901899,-18.5027824],[-46.8901899,-18.5026998],[-46.8903971,-18.5026998],[-46.8903971,-18.5026173],[-46.8902935,-18.5026173],[-46.8902935,-18.5025347],[-46.8903971,-18.5025347],[-46.8903971,-18.5024522]],[[-46.8891534,-18.5044333],[-46.8890498,-18.5044333],[-46.8890498,-18.5045159],[-46.8891534,-18.5045159],[-46.8891534,-18.5044333]],[[-46.8843859,-18.5049286],[-46.8842823,-18.5049286],[-46.8842823,-18.5050112],[-46.8841786,-18.5050112],[-46.8841786,-18.5055065],[-46.8844896,-18.5055065],[-46.8844896,-18.5054239],[-46.8845932,-18.5054239],[-46.8845932,-18.5052588],[-46.8844896,-18.5052588],[-46.8844896,-18.5050112],[-46.8843859,-18.5050112],[-46.8843859,-18.5049286]],[[-46.8848005,-18.5054239],[-46.8845932,-18.5054239],[-46.8845932,-18.505589],[-46.8846969,-18.505589],[-46.8846969,-18.5055065],[-46.8848005,-18.5055065],[-46.8848005,-18.5054239]],[[-46.8793075,-18.5067447],[-46.8791002,-18.5067447],[-46.8791002,-18.5069924],[-46.8794111,-18.5069924],[-46.8794111,-18.5068273],[-46.8793075,-18.5068273],[-46.8793075,-18.5067447]],[[-46.886977,-18.5071575],[-46.8867697,-18.5071575],[-46.8867697,-18.50724],[-46.886977,-18.50724],[-46.886977,-18.5071575]],[[-46.888428,-18.50724],[-46.8880134,-18.50724],[-46.8880134,-18.5073226],[-46.8879097,-18.5073226],[-46.8879097,-18.5074877],[-46.888428,-18.5074877],[-46.888428,-18.50724]],[[-46.8872879,-18.50724],[-46.886977,-18.50724],[-46.886977,-18.5077353],[-46.886666,-18.5077353],[-46.886666,-18.5078179],[-46.8867697,-18.5078179],[-46.8867697,-18.507983],[-46.8868733,-18.507983],[-46.8868733,-18.5087259],[-46.886977,-18.5087259],[-46.886977,-18.5078179],[-46.8870806,-18.5078179],[-46.8870806,-18.5079004],[-46.8871843,-18.5079004],[-46.8871843,-18.5077353],[-46.8873915,-18.5077353],[-46.8873915,-18.5080655],[-46.8872879,-18.5080655],[-46.8872879,-18.5083132],[-46.8873915,-18.5083132],[-46.8873915,-18.5084783],[-46.8875988,-18.5084783],[-46.8875988,-18.5086434],[-46.8874952,-18.5086434],[-46.8874952,-18.5087259],[-46.8875988,-18.5087259],[-46.8875988,-18.508891],[-46.8877025,-18.508891],[-46.8877025,-18.5084783],[-46.8878061,-18.5084783],[-46.8878061,-18.5080655],[-46.8879097,-18.5080655],[-46.8879097,-18.507983],[-46.8880134,-18.507983],[-46.8880134,-18.5079004],[-46.8882207,-18.5079004],[-46.8882207,-18.5077353],[-46.888117,-18.5077353],[-46.888117,-18.5076528],[-46.8880134,-18.5076528],[-46.8880134,-18.5075702],[-46.8879097,-18.5075702],[-46.8879097,-18.5074877],[-46.8878061,-18.5074877],[-46.8878061,-18.5075702],[-46.8873915,-18.5075702],[-46.8873915,-18.5074877],[-46.8872879,-18.5074877],[-46.8872879,-18.50724]],[[-46.8862515,-18.5075702],[-46.8861478,-18.5075702],[-46.8861478,-18.5097165],[-46.8860442,-18.5097165],[-46.8860442,-18.5102118],[-46.8859406,-18.5102118],[-46.8859406,-18.5106246],[-46.8858369,-18.5106246],[-46.8858369,-18.5107071],[-46.8859406,-18.5107071],[-46.8859406,-18.5108722],[-46.8858369,-18.5108722],[-46.8858369,-18.5110373],[-46.8857333,-18.5110373],[-46.8857333,-18.5112024],[-46.8856296,-18.5112024],[-46.8856296,-18.5116152],[-46.8857333,-18.5116152],[-46.8857333,-18.5116977],[-46.8859406,-18.5116977],[-46.8859406,-18.5113675],[-46.8860442,-18.5113675],[-46.8860442,-18.5109548],[-46.8861478,-18.5109548],[-46.8861478,-18.5110373],[-46.8863551,-18.5110373],[-46.8863551,-18.5111199],[-46.8864588,-18.5111199],[-46.8864588,-18.5110373],[-46.8865624,-18.5110373],[-46.8865624,-18.5109548],[-46.8864588,-18.5109548],[-46.8864588,-18.5107897],[-46.8863551,-18.5107897],[-46.8863551,-18.5101293],[-46.8864588,-18.5101293],[-46.8864588,-18.5099642],[-46.8865624,-18.5099642],[-46.8865624,-18.5098816],[-46.886666,-18.5098816],[-46.886666,-18.5093863],[-46.8867697,-18.5093863],[-46.8867697,-18.5091387],[-46.8868733,-18.5091387],[-46.8868733,-18.508891],[-46.8867697,-18.508891],[-46.8867697,-18.5088085],[-46.8868733,-18.5088085],[-46.8868733,-18.5087259],[-46.886666,-18.5087259],[-46.886666,-18.5086434],[-46.8865624,-18.5086434],[-46.8865624,-18.5085608],[-46.8864588,-18.5085608],[-46.8864588,-18.5086434],[-46.8863551,-18.5086434],[-46.8863551,-18.5085608],[-46.8862515,-18.5085608],[-46.8862515,-18.5079004],[-46.8864588,-18.5079004],[-46.8864588,-18.5077353],[-46.8862515,-18.5077353],[-46.8862515,-18.5075702]],[[-46.8850078,-18.5079004],[-46.8848005,-18.5079004],[-46.8848005,-18.507983],[-46.8842823,-18.507983],[-46.8842823,-18.5080655],[-46.8841786,-18.5080655],[-46.8841786,-18.5081481],[-46.8839714,-18.5081481],[-46.8839714,-18.5082306],[-46.8836604,-18.5082306],[-46.8836604,-18.5084783],[-46.8835568,-18.5084783],[-46.8835568,-18.5085608],[-46.8832459,-18.5085608],[-46.8832459,-18.5086434],[-46.8831422,-18.5086434],[-46.8831422,-18.5087259],[-46.8832459,-18.5087259],[-46.8832459,-18.508891],[-46.8833495,-18.508891],[-46.8833495,-18.5088085],[-46.8835568,-18.5088085],[-46.8835568,-18.5087259],[-46.8838677,-18.5087259],[-46.8838677,-18.5086434],[-46.8839714,-18.5086434],[-46.8839714,-18.5087259],[-46.8844896,-18.5087259],[-46.8844896,-18.5085608],[-46.8846969,-18.5085608],[-46.8846969,-18.5083132],[-46.8848005,-18.5083132],[-46.8848005,-18.5080655],[-46.8849041,-18.5080655],[-46.8849041,-18.507983],[-46.8850078,-18.507983],[-46.8850078,-18.5079004]],[[-46.8875988,-18.5091387],[-46.8874952,-18.5091387],[-46.8874952,-18.5092212],[-46.8873915,-18.5092212],[-46.8873915,-18.5093863],[-46.8872879,-18.5093863],[-46.8872879,-18.5095514],[-46.8870806,-18.5095514],[-46.8870806,-18.5097165],[-46.886977,-18.5097165],[-46.886977,-18.5100467],[-46.8868733,-18.5100467],[-46.8868733,-18.5102118],[-46.886666,-18.5102118],[-46.886666,-18.5102944],[-46.8867697,-18.5102944],[-46.8867697,-18.5106246],[-46.886666,-18.5106246],[-46.886666,-18.5110373],[-46.886977,-18.5110373],[-46.886977,-18.5109548],[-46.8872879,-18.5109548],[-46.8872879,-18.5108722],[-46.8873915,-18.5108722],[-46.8873915,-18.5107897],[-46.8874952,-18.5107897],[-46.8874952,-18.5106246],[-46.8875988,-18.5106246],[-46.8875988,-18.510542],[-46.8877025,-18.510542],[-46.8877025,-18.5093863],[-46.8875988,-18.5093863],[-46.8875988,-18.5091387]],[[-46.8788929,-18.5091387],[-46.8787893,-18.5091387],[-46.8787893,-18.5093038],[-46.8788929,-18.5093038],[-46.8788929,-18.5091387]],[[-46.8789966,-18.5093863],[-46.8788929,-18.5093863],[-46.8788929,-18.509634],[-46.8789966,-18.509634],[-46.8789966,-18.5093863]],[[-46.8784784,-18.5093863],[-46.8783747,-18.5093863],[-46.8783747,-18.5095514],[-46.8784784,-18.5095514],[-46.8784784,-18.5093863]],[[-46.881484,-18.5110373],[-46.881173,-18.5110373],[-46.881173,-18.5112024],[-46.8810694,-18.5112024],[-46.8810694,-18.511285],[-46.8809658,-18.511285],[-46.8809658,-18.5119454],[-46.8810694,-18.5119454],[-46.8810694,-18.5121105],[-46.881484,-18.5121105],[-46.881484,-18.5119454],[-46.8815876,-18.5119454],[-46.8815876,-18.5116977],[-46.881484,-18.5116977],[-46.881484,-18.5115326],[-46.8815876,-18.5115326],[-46.8815876,-18.5112024],[-46.881484,-18.5112024],[-46.881484,-18.5110373]],[[-46.8860442,-18.5116977],[-46.8859406,-18.5116977],[-46.8859406,-18.5117803],[-46.8860442,-18.5117803],[-46.8860442,-18.5116977]],[[-46.8861478,-18.5117803],[-46.8860442,-18.5117803],[-46.8860442,-18.5118629],[-46.8861478,-18.5118629],[-46.8861478,-18.5117803]],[[-46.8862515,-18.5118629],[-46.8861478,-18.5118629],[-46.8861478,-18.5119454],[-46.8862515,-18.5119454],[-46.8862515,-18.5118629]],[[-46.8853187,-18.5135964],[-46.8852151,-18.5135964],[-46.8852151,-18.513679],[-46.8853187,-18.513679],[-46.8853187,-18.5135964]]],"type":"Polygon"},"properties":{},"type":"Feature"},{"geometry":{"coordinates":[[[-46.9061507,-18.5270531],[-46.9061507,-18.5271356],[-46.906047,-18.5271356],[-46.906047,-18.5270531],[-46.9061507,-18.5270531]]],"type":"Polygon"},"properties":{},"type":"Feature"},{"geometry":{"coordinates":[[[-46.9072907,-18.522017],[-46.9072907,-18.5220996],[-46.907498,-18.5220996],[-46.907498,-18.5224298],[-46.9073944,-18.5224298],[-46.9073944,-18.5225949],[-46.9072907,-18.5225949],[-46.9072907,-18.52276],[-46.907498,-18.52276],[-46.907498,-18.5233379],[-46.9083272,-18.5233379],[-46.9083272,-18.5234205],[-46.9082235,-18.5234205],[-46.9082235,-18.5235031],[-46.9080162,-18.5235031],[-46.9080162,-18.5235856],[-46.9079126,-18.5235856],[-46.9079126,-18.5237507],[-46.9081199,-18.5237507],[-46.9081199,-18.5238333],[-46.9088454,-18.5238333],[-46.9088454,-18.5237507],[-46.9091563,-18.5237507],[-46.9091563,-18.5239984],[-46.9088454,-18.5239984],[-46.9088454,-18.5241635],[-46.9085344,-18.5241635],[-46.9085344,-18.5242461],[-46.9083272,-18.5242461],[-46.9083272,-18.5244112],[-46.9082235,-18.5244112],[-46.9082235,-18.5244938],[-46.9081199,-18.5244938],[-46.9081199,-18.5246589],[-46.9082235,-18.5246589],[-46.9082235,-18.5249891],[-46.9083272,-18.5249891],[-46.9083272,-18.5250717],[-46.9085344,-18.5250717],[-46.9085344,-18.5251542],[-46.9086381,-18.5251542],[-46.9086381,-18.5252368],[-46.908949,-18.5252368],[-46.908949,-18.5251542],[-46.9092599,-18.5251542],[-46.9092599,-18.5250717],[-46.9095709,-18.5250717],[-46.9095709,-18.5249891],[-46.9096745,-18.5249891],[-46.9096745,-18.5249065],[-46.9099854,-18.5249065],[-46.9099854,-18.524824],[-46.9101927,-18.524824],[-46.9101927,-18.5246589],[-46.9105036,-18.5246589],[-46.9105036,-18.524824],[-46.9106073,-18.524824],[-46.9106073,-18.5251542],[-46.9107109,-18.5251542],[-46.9107109,-18.5253193],[-46.9108146,-18.5253193],[-46.9108146,-18.5254845],[-46.9107109,-18.5254845],[-46.9107109,-18.525567],[-46.9106073,-18.525567],[-46.9106073,-18.5258147],[-46.9107109,-18.5258147],[-46.9107109,-18.5256496],[-46.9110218,-18.5256496],[-46.9110218,-18.525567],[-46.9111255,-18.525567],[-46.9111255,-18.5254019],[-46.9117473,-18.5254019],[-46.9117473,-18.525567],[-46.9116437,-18.525567],[-46.9116437,-18.5256496],[-46.91154,-18.5256496],[-46.91154,-18.5258147],[-46.9113328,-18.5258147],[-46.9113328,-18.5260624],[-46.9112291,-18.5260624],[-46.9112291,-18.5262275],[-46.9110218,-18.5262275],[-46.9110218,-18.52631],[-46.9107109,-18.52631],[-46.9107109,-18.5262275],[-46.9108146,-18.5262275],[-46.9108146,-18.5261449],[-46.9106073,-18.5261449],[-46.9106073,-18.52631],[-46.9105036,-18.52631],[-46.9105036,-18.5263926],[-46.9102963,-18.5263926],[-46.9102963,-18.5265577],[-46.9101927,-18.5265577],[-46.9101927,-18.5266403],[-46.9100891,-18.5266403],[-46.9100891,-18.5268054],[-46.9099854,-18.5268054],[-46.9099854,-18.5269705],[-46.9098818,-18.5269705],[-46.9098818,-18.5270531],[-46.9097781,-18.5270531],[-46.9097781,-18.5273833],[-46.9094672,-18.5273833],[-46.9094672,-18.5273007],[-46.9093636,-18.5273007],[-46.9093636,-18.5272182],[-46.9090526,-18.5272182],[-46.9090526,-18.5273833],[-46.9088454,-18.5273833],[-46.9088454,-18.5275484],[-46.9087417,-18.5275484],[-46.9087417,-18.527631],[-46.9086381,-18.527631],[-46.9086381,-18.5277135],[-46.9085344,-18.5277135],[-46.9085344,-18.5278787],[-46.9083272,-18.5278787],[-46.9083272,-18.5279612],[-46.9082235,-18.5279612],[-46.9082235,-18.5280438],[-46.9080162,-18.5280438],[-46.9080162,-18.5281263],[-46.9079126,-18.5281263],[-46.9079126,-18.5282915],[-46.9068762,-18.5282915],[-46.9068762,-18.5282089],[-46.9067725,-18.5282089],[-46.9067725,-18.5282915],[-46.9066689,-18.5282915],[-46.9066689,-18.5281263],[-46.9067725,-18.5281263],[-46.9067725,-18.5278787],[-46.9066689,-18.5278787],[-46.9066689,-18.5274659],[-46.9064616,-18.5274659],[-46.9064616,-18.5273007],[-46.906358,-18.5273007],[-46.906358,-18.5272182],[-46.9062543,-18.5272182],[-46.9062543,-18.5270531],[-46.9061507,-18.5270531],[-46.9061507,-18.5268054],[-46.9059434,-18.5268054],[-46.9059434,-18.5264752],[-46.9058398,-18.5264752],[-46.9058398,-18.5260624],[-46.9059434,-18.5260624],[-46.9059434,-18.5258972],[-46.9066689,-18.5258972],[-46.9066689,-18.525567],[-46.9067725,-18.525567],[-46.9067725,-18.5254019],[-46.9066689,-18.5254019],[-46.9066689,-18.5230077],[-46.9067725,-18.5230077],[-46.9067725,-18.5237507],[-46.9069798,-18.5237507],[-46.9069798,-18.5238333],[-46.9070835,-18.5238333],[-46.9070835,-18.5237507],[-46.9071871,-18.5237507],[-46.9071871,-18.5235856],[-46.9072907,-18.5235856],[-46.9072907,-18.5234205],[-46.9073944,-18.5234205],[-46.9073944,-18.5230077],[-46.9072907,-18.5230077],[-46.9072907,-18.5228426],[-46.9068762,-18.5228426],[-46.9068762,-18.5223473],[-46.9067725,-18.5223473],[-46.9067725,-18.5221821],[-46.9068762,-18.5221821],[-46.9068762,-18.5222647],[-46.9069798,-18.5222647],[-46.9069798,-18.5221821],[-46.9070835,-18.5221821],[-46.9070835,-18.522017],[-46.9072907,-18.522017]],[[-46.9073944,-18.5222647],[-46.9072907,-18.5222647],[-46.9072907,-18.5224298],[-46.9073944,-18.5224298],[-46.9073944,-18.5222647]],[[-46.9070835,-18.5241635],[-46.9067725,-18.5241635],[-46.9067725,-18.5244112],[-46.9068762,-18.5244112],[-46.9068762,-18.5244938],[-46.9069798,-18.5244938],[-46.9069798,-18.5244112],[-46.9070835,-18.5244112],[-46.9070835,-18.5245763],[-46.9068762,-18.5245763],[-46.9068762,-18.524824],[-46.9069798,-18.524824],[-46.9069798,-18.5251542],[-46.9067725,-18.5251542],[-46.9067725,-18.5254019],[-46.9068762,-18.5254019],[-46.9068762,-18.5252368],[-46.9071871,-18.5252368],[-46.9071871,-18.5250717],[-46.9072907,-18.5250717],[-46.9072907,-18.5249891],[-46.9071871,-18.5249891],[-46.9071871,-18.524824],[-46.9072907,-18.524824],[-46.9072907,-18.5244938],[-46.9071871,-18.5244938],[-46.9071871,-18.5242461],[-46.9070835,-18.5242461],[-46.9070835,-18.5241635]]],"type":"Polygon"},"properties":{},"type":"Feature"},{"geometry":{"coordinates":[[[-46.9091563,-18.5273833],[-46.9091563,-18.5275484],[-46.9090526,-18.5275484],[-46.9090526,-18.5273833],[-46.9091563,-18.5273833]]],"type":"Polygon"},"properties":{},"type":"Feature"},{"geometry":{"coordinates":[[[-46.9107109,-18.52631],[-46.9107109,-18.5263926],[-46.9106073,-18.5263926],[-46.9106073,-18.52631],[-46.9107109,-18.52631]]],"type":"Polygon"},"properties":{},"type":"Feature"},{"geometry":{"coordinates":[[[-46.9131983,-18.5017093],[-46.9131983,-18.5018743],[-46.913302,-18.5018743],[-46.913302,-18.5017918],[-46.9134056,-18.5017918],[-46.9134056,-18.5018743],[-46.9135092,-18.5018743],[-46.9135092,-18.5019569],[-46.913302,-18.5019569],[-46.913302,-18.5023696],[-46.912991,-18.5023696],[-46.912991,-18.5019569],[-46.9130947,-18.5019569],[-46.9130947,-18.5017093],[-46.9131983,-18.5017093]]],"type":"Polygon"},"properties":{},"type":"Feature"},{"geometry":{"coordinates":[[[-46.9134056,-18.50303],[-46.9134056,-18.5036078],[-46.9135092,-18.5036078],[-46.9135092,-18.5038555],[-46.9136129,-18.5038555],[-46.9136129,-18.5040206],[-46.9138202,-18.5040206],[-46.9138202,-18.5041031],[-46.9140274,-18.5041031],[-46.9140274,-18.5044333],[-46.914442,-18.5044333],[-46.914442,-18.5045159],[-46.9147529,-18.5045159],[-46.9147529,-18.5045984],[-46.9148566,-18.5045984],[-46.9148566,-18.5045159],[-46.9149602,-18.5045159],[-46.9149602,-18.5044333],[-46.9151675,-18.5044333],[-46.9151675,-18.5045159],[-46.9152711,-18.5045159],[-46.9152711,-18.504681],[-46.9153748,-18.504681],[-46.9153748,-18.5047635],[-46.9154784,-18.5047635],[-46.9154784,-18.5048461],[-46.9157894,-18.5048461],[-46.9157894,-18.504681],[-46.9162039,-18.504681],[-46.9162039,-18.5045159],[-46.9161003,-18.5045159],[-46.9161003,-18.5044333],[-46.9159966,-18.5044333],[-46.9159966,-18.5037729],[-46.9162039,-18.5037729],[-46.9162039,-18.503938],[-46.9165148,-18.503938],[-46.9165148,-18.5038555],[-46.9164112,-18.5038555],[-46.9164112,-18.5037729],[-46.9163076,-18.5037729],[-46.9163076,-18.5036078],[-46.9164112,-18.5036078],[-46.9164112,-18.5035253],[-46.9166185,-18.5035253],[-46.9166185,-18.5036904],[-46.9167221,-18.5036904],[-46.9167221,-18.5041031],[-46.9168258,-18.5041031],[-46.9168258,-18.5045984],[-46.9169294,-18.5045984],[-46.9169294,-18.504681],[-46.9171367,-18.504681],[-46.9171367,-18.5045984],[-46.9170331,-18.5045984],[-46.9170331,-18.5045159],[-46.9169294,-18.5045159],[-46.9169294,-18.5041031],[-46.9170331,-18.5041031],[-46.9170331,-18.5041857],[-46.9171367,-18.5041857],[-46.9171367,-18.5042682],[-46.9172403,-18.5042682],[-46.9172403,-18.5056716],[-46.9171367,-18.5056716],[-46.9171367,-18.5055065],[-46.9170331,-18.5055065],[-46.9170331,-18.505589],[-46.9167221,-18.505589],[-46.9167221,-18.5055065],[-46.9166185,-18.5055065],[-46.9166185,-18.505589],[-46.915893,-18.505589],[-46.915893,-18.5057541],[-46.9157894,-18.5057541],[-46.9157894,-18.505589],[-46.9156857,-18.505589],[-46.9156857,-18.5056716],[-46.9153748,-18.5056716],[-46.9153748,-18.505589],[-46.9152711,-18.505589],[-46.9152711,-18.5055065],[-46.9145457,-18.5055065],[-46.9145457,-18.505589],[-46.9143384,-18.505589],[-46.9143384,-18.5056716],[-46.9142347,-18.5056716],[-46.9142347,-18.5057541],[-46.9140274,-18.5057541],[-46.9140274,-18.5059192],[-46.9139238,-18.5059192],[-46.9139238,-18.5060018],[-46.9135092,-18.5060018],[-46.9135092,-18.5060843],[-46.9134056,-18.5060843],[-46.9134056,-18.5060018],[-46.9131983,-18.5060018],[-46.9131983,-18.5060843],[-46.913302,-18.5060843],[-46.913302,-18.5062494],[-46.912991,-18.5062494],[-46.912991,-18.5061669],[-46.9128874,-18.5061669],[-46.9128874,-18.5060843],[-46.9127837,-18.5060843],[-46.9127837,-18.5060018],[-46.9125765,-18.5060018],[-46.9125765,-18.5058367],[-46.9120583,-18.5058367],[-46.9120583,-18.5057541],[-46.9123692,-18.5057541],[-46.9123692,-18.5056716],[-46.9125765,-18.5056716],[-46.9125765,-18.505589],[-46.9126801,-18.505589],[-46.9126801,-18.5055065],[-46.9130947,-18.5055065],[-46.9130947,-18.5054239],[-46.9134056,-18.5054239],[-46.9134056,-18.5052588],[-46.9135092,-18.5052588],[-46.9135092,-18.5050937],[-46.9136129,-18.5050937],[-46.9136129,-18.5050112],[-46.9137165,-18.5050112],[-46.9137165,-18.5047635],[-46.9136129,-18.5047635],[-46.9136129,-18.504681],[-46.9135092,-18.504681],[-46.9135092,-18.5045984],[-46.9134056,-18.5045984],[-46.9134056,-18.5042682],[-46.913302,-18.5042682],[-46.913302,-18.50303],[-46.9134056,-18.50303]],[[-46.9136129,-18.5045159],[-46.9135092,-18.5045159],[-46.9135092,-18.5045984],[-46.9136129,-18.5045984],[-46.9136129,-18.5045159]]],"type":"Polygon"},"properties":{},"type":"Feature"},{"geometry":{"coordinates":[[[-46.9138202,-18.5019569],[-46.9138202,-18.502122],[-46.9135092,-18.502122],[-46.9135092,-18.5022045],[-46.9134056,-18.5022045],[-46.9134056,-18.5020394],[-46.9135092,-18.5020394],[-46.9135092,-18.5019569],[-46.9138202,-18.5019569]]],"type":"Polygon"},"properties":{},"type":"Feature"},{"geometry":{"coordinates":[[[-46.914442,-18.5130186],[-46.914442,-18.5131011],[-46.9145457,-18.5131011],[-46.9145457,-18.5131837],[-46.9146493,-18.5131837],[-46.9146493,-18.5133488],[-46.9152711,-18.5133488],[-46.9152711,-18.5132662],[-46.9155821,-18.5132662],[-46.9155821,-18.5131837],[-46.9157894,-18.5131837],[-46.9157894,-18.5131011],[-46.9161003,-18.5131011],[-46.9161003,-18.5131837],[-46.9159966,-18.5131837],[-46.9159966,-18.5133488],[-46.9162039,-18.5133488],[-46.9162039,-18.5134313],[-46.9163076,-18.5134313],[-46.9163076,-18.5135964],[-46.9164112,-18.5135964],[-46.9164112,-18.513679],[-46.9167221,-18.513679],[-46.9167221,-18.5135964],[-46.9168258,-18.5135964],[-46.9168258,-18.5137616],[-46.9167221,-18.5137616],[-46.9167221,-18.5140918],[-46.9168258,-18.5140918],[-46.9168258,-18.5142569],[-46.9170331,-18.5142569],[-46.9170331,-18.5143394],[-46.9171367,-18.5143394],[-46.9171367,-18.5142569],[-46.917344,-18.5142569],[-46.917344,-18.5149173],[-46.9172403,-18.5149173],[-46.9172403,-18.5149999],[-46.9169294,-18.5149999],[-46.9169294,-18.515165],[-46.9168258,-18.515165],[-46.9168258,-18.5153301],[-46.9167221,-18.5153301],[-46.9167221,-18.5156603],[-46.9165148,-18.5156603],[-46.9165148,-18.5157428],[-46.9164112,-18.5157428],[-46.9164112,-18.5158254],[-46.9159966,-18.5158254],[-46.9159966,-18.5154952],[-46.9161003,-18.5154952],[-46.9161003,-18.5154126],[-46.9162039,-18.5154126],[-46.9162039,-18.5153301],[-46.9166185,-18.5153301],[-46.9166185,-18.5150824],[-46.9165148,-18.5150824],[-46.9165148,-18.5149173],[-46.9166185,-18.5149173],[-46.9166185,-18.5148347],[-46.9167221,-18.5148347],[-46.9167221,-18.5146696],[-46.9166185,-18.5146696],[-46.9166185,-18.5145871],[-46.9164112,-18.5145871],[-46.9164112,-18.514422],[-46.9162039,-18.514422],[-46.9162039,-18.5143394],[-46.9161003,-18.5143394],[-46.9161003,-18.514422],[-46.9159966,-18.514422],[-46.9159966,-18.5142569],[-46.9156857,-18.5142569],[-46.9156857,-18.5141743],[-46.9154784,-18.5141743],[-46.9154784,-18.5140918],[-46.9153748,-18.5140918],[-46.9153748,-18.5140092],[-46.9151675,-18.5140092],[-46.9151675,-18.5139267],[-46.9148566,-18.5139267],[-46.9148566,-18.5138441],[-46.9147529,-18.5138441],[-46.9147529,-18.5137616],[-46.9146493,-18.5137616],[-46.9146493,-18.513679],[-46.9142347,-18.513679],[-46.9142347,-18.5135964],[-46.9140274,-18.5135964],[-46.9140274,-18.5133488],[-46.9139238,-18.5133488],[-46.9139238,-18.5132662],[-46.9141311,-18.5132662],[-46.9141311,-18.5130186],[-46.914442,-18.5130186]]],"type":"Polygon"},"properties":{},"type":"Feature"},{"geometry":{"coordinates":[[[-46.9164112,-18.5131837],[-46.9164112,-18.5133488],[-46.9162039,-18.5133488],[-46.9162039,-18.5132662],[-46.9161003,-18.5132662],[-46.9161003,-18.5131837],[-46.9164112,-18.5131837]]],"type":"Polygon"},"properties":{},"type":"Feature"},{"geometry":{"coordinates":[[[-46.9165148,-18.5017093],[-46.9165148,-18.5017918],[-46.9161003,-18.5017918],[-46.9161003,-18.5018743],[-46.915893,-18.5018743],[-46.915893,-18.5019569],[-46.9157894,-18.5019569],[-46.9157894,-18.5020394],[-46.915893,-18.5020394],[-46.915893,-18.502122],[-46.9159966,-18.502122],[-46.9159966,-18.5022045],[-46.9161003,-18.5022045],[-46.9161003,-18.502122],[-46.9162039,-18.502122],[-46.9162039,-18.5022045],[-46.9163076,-18.5022045],[-46.9163076,-18.502122],[-46.9164112,-18.502122],[-46.9164112,-18.5020394],[-46.9165148,-18.5020394],[-46.9165148,-18.5022045],[-46.9166185,-18.5022045],[-46.9166185,-18.5025347],[-46.9167221,-18.5025347],[-46.9167221,-18.5024522],[-46.9168258,-18.5024522],[-46.9168258,-18.5025347],[-46.9170331,-18.5025347],[-46.9170331,-18.5026173],[-46.9171367,-18.5026173],[-46.9171367,-18.5027824],[-46.9172403,-18.5027824],[-46.9172403,-18.5028649],[-46.9171367,-18.5028649],[-46.9171367,-18.5031126],[-46.9170331,-18.5031126],[-46.9170331,-18.5031951],[-46.9169294,-18.5031951],[-46.9169294,-18.5032777],[-46.9168258,-18.5032777],[-46.9168258,-18.5031951],[-46.9165148,-18.5031951],[-46.9165148,-18.5032777],[-46.9163076,-18.5032777],[-46.9163076,-18.5036078],[-46.9159966,-18.5036078],[-46.9159966,-18.5032777],[-46.9161003,-18.5032777],[-46.9161003,-18.5031951],[-46.9162039,-18.5031951],[-46.9162039,-18.5031126],[-46.9168258,-18.5031126],[-46.9168258,-18.5027824],[-46.9167221,-18.5027824],[-46.9167221,-18.5029475],[-46.9166185,-18.5029475],[-46.9166185,-18.5028649],[-46.9165148,-18.5028649],[-46.9165148,-18.5027824],[-46.9161003,-18.5027824],[-46.9161003,-18.5029475],[-46.9159966,-18.5029475],[-46.9159966,-18.50303],[-46.9157894,-18.50303],[-46.9157894,-18.5029475],[-46.915893,-18.5029475],[-46.915893,-18.5028649],[-46.9156857,-18.5028649],[-46.9156857,-18.5026173],[-46.9157894,-18.5026173],[-46.9157894,-18.5025347],[-46.9156857,-18.5025347],[-46.9156857,-18.5024522],[-46.9155821,-18.5024522],[-46.9155821,-18.5023696],[-46.9154784,-18.5023696],[-46.9154784,-18.5022045],[-46.9153748,-18.5022045],[-46.9153748,-18.5024522],[-46.9151675,-18.5024522],[-46.9151675,-18.5026173],[-46.9149602,-18.5026173],[-46.9149602,-18.5025347],[-46.9148566,-18.5025347],[-46.9148566,-18.5024522],[-46.9146493,-18.5024522],[-46.9146493,-18.5022045],[-46.9145457,-18.5022045],[-46.9145457,-18.5023696],[-46.914442,-18.5023696],[-46.914442,-18.5020394],[-46.9139238,-18.5020394],[-46.9139238,-18.5017918],[-46.9136129,-18.5017918],[-46.9136129,-18.5018743],[-46.9135092,-18.5018743],[-46.9135092,-18.5017918],[-46.9134056,-18.5017918],[-46.9134056,-18.5017093],[-46.9140274,-18.5017093],[-46.9140274,-18.5017918],[-46.9141311,-18.5017918],[-46.9141311,-18.5018743],[-46.9142347,-18.5018743],[-46.9142347,-18.5017093],[-46.9145457,-18.5017093],[-46.9145457,-18.5017918],[-46.9146493,-18.5017918],[-46.9146493,-18.5017093],[-46.9165148,-18.5017093]]],"type":"Polygon"},"properties":{},"type":"Feature"}],"type":"FeatureCollection"}
