{"features":[{"geometry":{"coordinates":[[[-46.8871843,-18.5312636],[-46.8871843,-18.5315113],[-46.886666,-18.5315113],[-46.886666,-18.5312636],[-46.8871843,-18.5312636]]],"type":"Polygon"},"properties":{},"type":"Feature"},{"geometry":{"coordinates":[[[-46.8877025,-18.5299427],[-46.8877025,-18.5301903],[-46.8871843,-18.5301903],[-46.8871843,-18.5299427],[-46.8877025,-18.5299427]]],"type":"Polygon"},"properties":{},"type":"Feature"},{"geometry":{"coordinates":[[[-46.8960974,-18.5337405],[-46.8960974,-18.5339882],[-46.8957865,-18.5339882],[-46.8957865,-18.533823],[-46.8959938,-18.533823],[-46.8959938,-18.5337405],[-46.8960974,-18.5337405]]],"type":"Polygon"},"properties":{},"type":"Feature"},{"geometry":{"coordinates":[[[-46.8966156,-18.5334102],[-46.8966156,-18.5336579],[-46.8964084,-18.5336579],[-46.8964084,-18.5334102],[-46.8966156,-18.5334102]]],"type":"Polygon"},"properties":{},"type":"Feature"},{"geometry":{"coordinates":[[[-46.9023159,-18.521274],[-46.9023159,-18.5215217],[-46.902005,-18.5215217],[-46.902005,-18.521274],[-46.9023159,-18.521274]]],"type":"Polygon"},"properties":{},"type":"Feature"},{"geometry":{"coordinates":[[[-46.9055288,-18.5107897],[-46.9055288,-18.5110373],[-46.9052179,-18.5110373],[-46.9052179,-18.5107897],[-46.9055288,-18.5107897]]],"type":"Polygon"},"properties":{},"type":"Feature"}],"type":"FeatureCollection"}
