{"features":[{"geometry":{"coordinates":[[[-46.8805512,-18.5056716],[-46.8805512,-18.5059192],[-46.8804475,-18.5059192],[-46.8804475,-18.5056716],[-46.8805512,-18.5056716]]],"type":"Polygon"},"properties":{},"type":"Feature"},{"geometry":{"coordinates":[[[-46.8823131,-18.5052588],[-46.8823131,-18.5056716],[-46.8821058,-18.5056716],[-46.8821058,-18.5059192],[-46.8817949,-18.5059192],[-46.8817949,-18.5061669],[-46.8812767,-18.5061669],[-46.8812767,-18.5058367],[-46.881173,-18.5058367],[-46.881173,-18.5057541],[-46.8815876,-18.5057541],[-46.8815876,-18.5055065],[-46.8816912,-18.5055065],[-46.8816912,-18.5054239],[-46.8817949,-18.5054239],[-46.8817949,-18.5052588],[-46.8823131,-18.5052588]]],"type":"Polygon"},"properties":{},"type":"Feature"},{"geometry":{"coordinates":[[[-46.8829349,-18.5218519],[-46.8829349,-18.5219345],[-46.8827277,-18.5219345],[-46.8827277,-18.522017],[-46.882624,-18.522017],[-46.882624,-18.5218519],[-46.8829349,-18.5218519]]],"type":"Polygon"},"properties":{},"type":"Feature"},{"geometry":{"coordinates":[[[-46.8831422,-18.5078179],[-46.8831422,-18.5080655],[-46.8829349,-18.5080655],[-46.8829349,-18.5078179],[-46.8831422,-18.5078179]]],"type":"Polygon"},"properties":{},"type":"Feature"},{"geometry":{"coordinates":[[[-46.8834532,-18.5041031],[-46.8834532,-18.5042682],[-46.8831422,-18.5042682],[-46.8831422,-18.5045984],[-46.8829349,-18.5045984],[-46.8829349,-18.5047635],[-46.8828313,-18.5047635],[-46.8828313,-18.5048461],[-46.882624,-18.5048461],[-46.882624,-18.5050937],[-46.8823131,-18.5050937],[-46.8823131,-18.5050112],[-46.8825204,-18.5050112],[-46.8825204,-18.5041031],[-46.8834532,-18.5041031]]],"type":"Polygon"},"properties":{},"type":"Feature"},{"geometry":{"coordinates":[[[-46.8843859,-18.5145045],[-46.8843859,-18.5145871],[-46.8842823,-18.5145871],[-46.8842823,-18.5145045],[-46.8843859,-18.5145045]]],"type":"Polygon"},"properties":{},"type":"Feature"},{"geometry":{"coordinates":[[[-46.8848005,-18.502122],[-46.8848005,-18.5024522],[-46.8846969,-18.5024522],[-46.8846969,-18.5022871],[-46.8845932,-18.5022871],[-46.8845932,-18.5022045],[-46.8843859,-18.5022045],[-46.8843859,-18.502122],[-46.8848005,-18.502122]]],"type":"Polygon"},"properties":{},"type":"Feature"},{"geometry":{"coordinates":[[[-46.8848005,-18.5025347],[-46.8848005,-18.5026173],[-46.8849041,-18.5026173],[-46.8849041,-18.5026998],[-46.8846969,-18.5026998],[-46.8846969,-18.5027824],[-46.8841786,-18.5027824],[-46.8841786,-18.5029475],[-46.884075,-18.5029475],[-46.884075,-18.50303],[-46.8841786,-18.50303],[-46.8841786,-18.5031126],[-46.8842823,-18.5031126],[-46.8842823,-18.5031951],[-46.8839714,-18.5031951],[-46.8839714,-18.5032777],[-46.8833495,-18.5032777],[-46.8833495,-18.5029475],[-46.8834532,-18.5029475],[-46.8834532,-18.5027824],[-46.8836604,-18.5027824],[-46.8836604,-18.5028649],[-46.8838677,-18.5028649],[-46.8838677,-18.5027824],[-46.884075,-18.5027824],[-46.884075,-18.5026998],[-46.8841786,-18.5026998],[-46.8841786,-18.5025347],[-46.8845932,-18.5025347],[-46.8845932,-18.5026173],[-46.8846969,-18.5026173],[-46.8846969,-18.5025347],[-46.8848005,-18.5025347]]],"type":"Polygon"},"properties":{},"type":"Feature"},{"geometry":{"coordinates":[[[-46.8853187,-18.5075702],[-46.8853187,-18.5078179],[-46.8852151,-18.5078179],[-46.8852151,-18.5076528],[-46.8850078,-18.5076528],[-46.8850078,-18.5075702],[-46.8853187,-18.5075702]]],"type":"Polygon"},"properties":{},"type":"Feature"},{"geometry":{"coordinates":[[[-46.8868733,-18.5003885],[-46.8868733,-18.500471],[-46.886977,-18.500471],[-46.886977,-18.5005536],[-46.8870806,-18.5005536],[-46.8870806,-18.5007187],[-46.8872879,-18.5007187],[-46.8872879,-18.5009663],[-46.886977,-18.5009663],[-46.886977,-18.5008838],[-46.8867697,-18.5008838],[-46.8867697,-18.5008012],[-46.886666,-18.5008012],[-46.886666,-18.5005536],[-46.8864588,-18.5005536],[-46.8864588,-18.5003885],[-46.8868733,-18.5003885]]],"type":"Polygon"},"properties":{},"type":"Feature"},{"geometry":{"coordinates":[[[-46.8874952,-18.5016267],[-46.8874952,-18.5017093],[-46.8873915,-18.5017093],[-46.8873915,-18.5018743],[-46.8872879,-18.5018743],[-46.8872879,-18.5017093],[-46.8871843,-18.5017093],[-46.8871843,-18.5016267],[-46.8874952,-18.5016267]]],"type":"Polygon"},"properties":{},"type":"Feature"},{"geometry":{"coordinates":[[[-46.8878061,-18.5009663],[-46.8878061,-18.5010489],[-46.8880134,-18.5010489],[-46.8880134,-18.5011314],[-46.8877025,-18.5011314],[-46.8877025,-18.5010489],[-46.8873915,-18.5010489],[-46.8873915,-18.5009663],[-46.8878061,-18.5009663]]],"type":"Polygon"},"properties":{},"type":"Feature"},{"geometry":{"coordinates":[[[-46.8883243,-18.5013791],[-46.8883243,-18.5016267],[-46.8882207,-18.5016267],[-46.8882207,-18.5015442],[-46.888117,-18.5015442],[-46.888117,-18.5013791],[-46.8883243,-18.5013791]]],"type":"Polygon"},"properties":{},"type":"Feature"},{"geometry":{"coordinates":[[[-46.888428,-18.5011314],[-46.888428,-18.501214],[-46.8887389,-18.501214],[-46.8887389,-18.5012965],[-46.8888425,-18.5012965],[-46.8888425,-18.5013791],[-46.889568,-18.5013791],[-46.889568,-18.5015442],[-46.8896717,-18.5015442],[-46.8896717,-18.5017918],[-46.8894644,-18.5017918],[-46.8894644,-18.5018743],[-46.8890498,-18.5018743],[-46.8890498,-18.5022871],[-46.8889462,-18.5022871],[-46.8889462,-18.5022045],[-46.8886352,-18.5022045],[-46.8886352,-18.502122],[-46.8885316,-18.502122],[-46.8885316,-18.5020394],[-46.8882207,-18.5020394],[-46.8882207,-18.5019569],[-46.8880134,-18.5019569],[-46.8880134,-18.5018743],[-46.8883243,-18.5018743],[-46.8883243,-18.5019569],[-46.8885316,-18.5019569],[-46.8885316,-18.5014616],[-46.888428,-18.5014616],[-46.888428,-18.5013791],[-46.8883243,-18.5013791],[-46.8883243,-18.501214],[-46.8880134,-18.501214],[-46.8880134,-18.5011314],[-46.888428,-18.5011314]]],"type":"Polygon"},"properties":{},"type":"Feature"},{"geometry":{"coordinates":[[[-46.8896717,-18.5078179],[-46.8896717,-18.5079004],[-46.8893607,-18.5079004],[-46.8893607,-18.5078179],[-46.8896717,-18.5078179]]],"type":"Polygon"},"properties":{},"type":"Feature"},{"geometry":{"coordinates":[[[-46.8901899,-18.5013791],[-46.8901899,-18.5016267],[-46.8897753,-18.5016267],[-46.8897753,-18.5015442],[-46.8898789,-18.5015442],[-46.8898789,-18.5013791],[-46.8901899,-18.5013791]]],"type":"Polygon"},"properties":{},"type":"Feature"},{"geometry":{"coordinates":[[[-46.8917445,-18.5000583],[-46.8917445,-18.5002234],[-46.8916408,-18.5002234],[-46.8916408,-18.5000583],[-46.8917445,-18.5000583]]],"type":"Polygon"},"properties":{},"type":"Feature"},{"geometry":{"coordinates":[[[-46.9067725,-18.5230077],[-46.9067725,-18.5237507],[-46.9068762,-18.5237507],[-46.9068762,-18.5241635],[-46.9067725,-18.5241635],[-46.9067725,-18.5244112],[-46.9068762,-18.5244112],[-46.9068762,-18.5251542],[-46.9067725,-18.5251542],[-46.9067725,-18.5253193],[-46.9066689,-18.5253193],[-46.9066689,-18.5230077],[-46.9067725,-18.5230077]]],"type":"Polygon"},"properties":{},"type":"Feature"},{"geometry":{"coordinates":[[[-46.9073944,-18.5279612],[-46.9073944,-18.5280438],[-46.9072907,-18.5280438],[-46.9072907,-18.5279612],[-46.9073944,-18.5279612]]],"type":"Polygon"},"properties":{},"type":"Feature"},{"geometry":{"coordinates":[[[-46.9082235,-18.525567],[-46.9082235,-18.5258972],[-46.9085344,-18.5258972],[-46.9085344,-18.5261449],[-46.9087417,-18.5261449],[-46.9087417,-18.5266403],[-46.9088454,-18.5266403],[-46.9088454,-18.5271356],[-46.908949,-18.5271356],[-46.908949,-18.5269705],[-46.9090526,-18.5269705],[-46.9090526,-18.5272182],[-46.9087417,-18.5272182],[-46.9087417,-18.5270531],[-46.9086381,-18.5270531],[-46.9086381,-18.5269705],[-46.9085344,-18.5269705],[-46.9085344,-18.5268054],[-46.9084308,-18.5268054],[-46.9084308,-18.5267228],[-46.9083272,-18.5267228],[-46.9083272,-18.52631],[-46.9082235,-18.52631],[-46.9082235,-18.5261449],[-46.9081199,-18.5261449],[-46.9081199,-18.5260624],[-46.9080162,-18.5260624],[-46.9080162,-18.5258972],[-46.9079126,-18.5258972],[-46.9079126,-18.5258147],[-46.9078089,-18.5258147],[-46.9078089,-18.5256496],[-46.9081199,-18.5256496],[-46.9081199,-18.525567],[-46.9082235,-18.525567]]],"type":"Polygon"},"properties":{},"type":"Feature"},{"geometry":{"coordinates":[[[-46.9082235,-18.5277961],[-46.9082235,-18.5280438],[-46.9077053,-18.5280438],[-46.9077053,-18.5279612],[-46.9078089,-18.5279612],[-46.9078089,-18.5278787],[-46.9079126,-18.5278787],[-46.9079126,-18.5277961],[-46.9082235,-18.5277961]]],"type":"Polygon"},"properties":{},"type":"Feature"},{"geometry":{"coordinates":[[[-46.9085344,-18.5274659],[-46.9085344,-18.5277135],[-46.9082235,-18.5277135],[-46.9082235,-18.527631],[-46.9083272,-18.527631],[-46.9083272,-18.5274659],[-46.9085344,-18.5274659]]],"type":"Polygon"},"properties":{},"type":"Feature"}],"type":"FeatureCollection"}
