{"features":[{"geometry":{"coordinates":[[[-46.8960974,-18.5336579],[-46.8960974,-18.5337405],[-46.8959938,-18.5337405],[-46.8959938,-18.533823],[-46.8957865,-18.533823],[-46.8957865,-18.5336579],[-46.8960974,-18.5336579]]],"type":"Polygon"},"properties":{},"type":"Feature"},{"geometry":{"coordinates":[[[-46.8966156,-18.5325846],[-46.8966156,-18.5328323],[-46.8964084,-18.5328323],[-46.8964084,-18.5325846],[-46.8966156,-18.5325846]]],"type":"Polygon"},"properties":{},"type":"Feature"},{"geometry":{"coordinates":[[[-46.8969266,-18.5320892],[-46.8969266,-18.5325846],[-46.8966156,-18.5325846],[-46.8966156,-18.5320892],[-46.8969266,-18.5320892]]],"type":"Polygon"},"properties":{},"type":"Feature"},{"geometry":{"coordinates":[[[-46.8971339,-18.5315113],[-46.8971339,-18.5320892],[-46.8969266,-18.5320892],[-46.8969266,-18.5315113],[-46.8971339,-18.5315113]]],"type":"Polygon"},"properties":{},"type":"Feature"}],"type":"FeatureCollection"}
