{"features":[{"geometry":{"coordinates":[[[-46.8817949,-18.5056716],[-46.8817949,-18.5061669],[-46.8812767,-18.5061669],[-46.8812767,-18.5058367],[-46.881173,-18.5058367],[-46.881173,-18.5057541],[-46.8812767,-18.5057541],[-46.8812767,-18.5056716],[-46.8817949,-18.5056716]]],"type":"Polygon"},"properties":{},"type":"Feature"},{"geometry":{"coordinates":[[[-46.882624,-18.5040206],[-46.882624,-18.5042682],[-46.8823131,-18.5042682],[-46.8823131,-18.5040206],[-46.882624,-18.5040206]]],"type":"Polygon"},"properties":{},"type":"Feature"},{"geometry":{"coordinates":[[[-46.8829349,-18.5218519],[-46.8829349,-18.5219345],[-46.8827277,-18.5219345],[-46.8827277,-18.522017],[-46.882624,-18.522017],[-46.882624,-18.5218519],[-46.8829349,-18.5218519]]],"type":"Polygon"},"properties":{},"type":"Feature"},{"geometry":{"coordinates":[[[-46.8874952,-18.5016267],[-46.8874952,-18.5017093],[-46.8873915,-18.5017093],[-46.8873915,-18.5018743],[-46.8872879,-18.5018743],[-46.8872879,-18.5017093],[-46.8871843,-18.5017093],[-46.8871843,-18.5016267],[-46.8874952,-18.5016267]]],"type":"Polygon"},"properties":{},"type":"Feature"},{"geometry":{"coordinates":[[[-46.8890498,-18.5018743],[-46.8890498,-18.5020394],[-46.8888425,-18.5020394],[-46.8888425,-18.502122],[-46.8885316,-18.502122],[-46.8885316,-18.5020394],[-46.8882207,-18.5020394],[-46.8882207,-18.5019569],[-46.8880134,-18.5019569],[-46.8880134,-18.5018743],[-46.8890498,-18.5018743]]],"type":"Polygon"},"properties":{},"type":"Feature"}],"type":"FeatureCollection"}
