{"features":[{"geometry":{"coordinates":[[[-46.8812767,-18.5057541],[-46.8812767,-18.5058367],[-46.881173,-18.5058367],[-46.881173,-18.5057541],[-46.8812767,-18.5057541]]],"type":"Polygon"},"properties":{},"type":"Feature"},{"geometry":{"coordinates":[[[-46.8813803,-18.5060018],[-46.8813803,-18.5061669],[-46.8812767,-18.5061669],[-46.8812767,-18.5060018],[-46.8813803,-18.5060018]]],"type":"Polygon"},"properties":{},"type":"Feature"},{"geometry":{"coordinates":[[[-46.8829349,-18.5218519],[-46.8829349,-18.5219345],[-46.8827277,-18.5219345],[-46.8827277,-18.522017],[-46.882624,-18.522017],[-46.882624,-18.5218519],[-46.8829349,-18.5218519]]],"type":"Polygon"},"properties":{},"type":"Feature"},{"geometry":{"coordinates":[[[-46.8831422,-18.5078179],[-46.8831422,-18.5079004],[-46.8830386,-18.5079004],[-46.8830386,-18.5078179],[-46.8831422,-18.5078179]]],"type":"Polygon"},"properties":{},"type":"Feature"},{"geometry":{"coordinates":[[[-46.8831422,-18.507983],[-46.8831422,-18.5080655],[-46.8830386,-18.5080655],[-46.8830386,-18.507983],[-46.8831422,-18.507983]]],"type":"Polygon"},"properties":{},"type":"Feature"},{"geometry":{"coordinates":[[[-46.8843859,-18.5145045],[-46.8843859,-18.5145871],[-46.8842823,-18.5145871],[-46.8842823,-18.5145045],[-46.8843859,-18.5145045]]],"type":"Polygon"},"properties":{},"type":"Feature"},{"geometry":{"coordinates":[[[-46.8874952,-18.5016267],[-46.8874952,-18.5017093],[-46.8873915,-18.5017093],[-46.8873915,-18.5018743],[-46.8872879,-18.5018743],[-46.8872879,-18.5017093],[-46.8871843,-18.5017093],[-46.8871843,-18.5016267],[-46.8874952,-18.5016267]]],"type":"Polygon"},"properties":{},"type":"Feature"},{"geometry":{"coordinates":[[[-46.8883243,-18.5014616],[-46.8883243,-18.5016267],[-46.8882207,-18.5016267],[-46.8882207,-18.5015442],[-46.888117,-18.5015442],[-46.888117,-18.5014616],[-46.8883243,-18.5014616]]],"type":"Polygon"},"properties":{},"type":"Feature"},{"geometry":{"coordinates":[[[-46.8886352,-18.5014616],[-46.8886352,-18.502122],[-46.8885316,-18.502122],[-46.8885316,-18.5020394],[-46.8882207,-18.5020394],[-46.8882207,-18.5019569],[-46.8880134,-18.5019569],[-46.8880134,-18.5018743],[-46.8883243,-18.5018743],[-46.8883243,-18.5019569],[-46.8885316,-18.5019569],[-46.8885316,-18.5014616],[-46.8886352,-18.5014616]]],"type":"Polygon"},"properties":{},"type":"Feature"},{"geometry":{"coordinates":[[[-46.8894644,-18.5017918],[-46.8894644,-18.5018743],[-46.8893607,-18.5018743],[-46.8893607,-18.5017918],[-46.8894644,-18.5017918]]],"type":"Polygon"},"properties":{},"type":"Feature"},{"geometry":{"coordinates":[[[-46.8896717,-18.5017093],[-46.8896717,-18.5017918],[-46.889568,-18.5017918],[-46.889568,-18.5017093],[-46.8896717,-18.5017093]]],"type":"Polygon"},"properties":{},"type":"Feature"},{"geometry":{"coordinates":[[[-46.8896717,-18.5078179],[-46.8896717,-18.5079004],[-46.889568,-18.5079004],[-46.889568,-18.5078179],[-46.8896717,-18.5078179]]],"type":"Polygon"},"properties":{},"type":"Feature"},{"geometry":{"coordinates":[[[-46.9073944,-18.5279612],[-46.9073944,-18.5280438],[-46.9072907,-18.5280438],[-46.9072907,-18.5279612],[-46.9073944,-18.5279612]]],"type":"Polygon"},"properties":{},"type":"Feature"},{"geometry":{"coordinates":[[[-46.9078089,-18.5279612],[-46.9078089,-18.5280438],[-46.9077053,-18.5280438],[-46.9077053,-18.5279612],[-46.9078089,-18.5279612]]],"type":"Polygon"},"properties":{},"type":"Feature"},{"geometry":{"coordinates":[[[-46.9080162,-18.5277961],[-46.9080162,-18.5279612],[-46.9078089,-18.5279612],[-46.9078089,-18.5278787],[-46.9079126,-18.5278787],[-46.9079126,-18.5277961],[-46.9080162,-18.5277961]]],"type":"Polygon"},"properties":{},"type":"Feature"},{"geometry":{"coordinates":[[[-46.9082235,-18.525567],[-46.9082235,-18.5258972],[-46.9085344,-18.5258972],[-46.9085344,-18.5261449],[-46.9086381,-18.5261449],[-46.9086381,-18.52631],[-46.9087417,-18.52631],[-46.9087417,-18.5266403],[-46.9088454,-18.5266403],[-46.9088454,-18.5271356],[-46.908949,-18.5271356],[-46.908949,-18.5269705],[-46.9090526,-18.5269705],[-46.9090526,-18.5272182],[-46.9087417,-18.5272182],[-46.9087417,-18.5270531],[-46.9086381,-18.5270531],[-46.9086381,-18.5269705],[-46.9085344,-18.5269705],[-46.9085344,-18.5268054],[-46.9084308,-18.5268054],[-46.9084308,-18.5267228],[-46.9083272,-18.5267228],[-46.9083272,-18.52631],[-46.9082235,-18.52631],[-46.9082235,-18.5261449],[-46.9081199,-18.5261449],[-46.9081199,-18.5260624],[-46.9080162,-18.5260624],[-46.9080162,-18.5258972],[-46.9079126,-18.5258972],[-46.9079126,-18.5258147],[-46.9078089,-18.5258147],[-46.9078089,-18.5256496],[-46.9081199,-18.5256496],[-46.9081199,-18.525567],[-46.9082235,-18.525567]]],"type":"Polygon"},"properties":{},"type":"Feature"},{"geometry":{"coordinates":[[[-46.9085344,-18.5274659],[-46.9085344,-18.527631],[-46.9083272,-18.527631],[-46.9083272,-18.5274659],[-46.9085344,-18.5274659]]],"type":"Polygon"},"properties":{},"type":"Feature"}],"type":"FeatureCollection"}
